<?xml version="1.0" encoding="UTF-8"?>
<gpx version="1.1" creator="Geurt's huttentocht 2027" xmlns="http://www.topografix.com/GPX/1/1" xmlns:xsi="http://www.w3.org/2001/XMLSchema-instance" xsi:schemaLocation="http://www.topografix.com/GPX/1/1 http://www.topografix.com/GPX/1/1/gpx.xsd">
  <metadata>
    <name>Noodplan Lechtaler Höhenweg (uitwijkroutes)</name>
    <desc>Uitwijk-/afdaalroutes. Indicatief, OSM/ODbL.</desc>
    <copyright author="OpenStreetMap contributors"><license>ODbL</license></copyright>
  </metadata>
  <wpt lat="47.233536" lon="10.452458"><ele>1308</ele><name>Start Madau</name><sym>Flag, Red</sym></wpt>
  <wpt lat="47.200612" lon="10.478599"><ele>2242</ele><name>Memminger Hütte</name><sym>Flag, Red</sym></wpt>
  <wpt lat="47.168308" lon="10.403172"><ele>2376</ele><name>Ansbacher Hütte</name><sym>Flag, Red</sym></wpt>
  <wpt lat="47.148585" lon="10.408440"><ele>1157</ele><name>Flirsch</name><sym>Flag, Red</sym></wpt>
  <wpt lat="47.150549" lon="10.383471"><ele>1180</ele><name>Schnann</name><sym>Flag, Red</sym></wpt>
  <trk><name>Memminger Hütte naar Madau (dal)</name><trkseg>
      <trkpt lat="47.200616" lon="10.478409"><ele>2237</ele></trkpt>
      <trkpt lat="47.200643" lon="10.478411"><ele>2237</ele></trkpt>
      <trkpt lat="47.200725" lon="10.478363"><ele>2236</ele></trkpt>
      <trkpt lat="47.200825" lon="10.478277"><ele>2234</ele></trkpt>
      <trkpt lat="47.200995" lon="10.478162"><ele>2229</ele></trkpt>
      <trkpt lat="47.201043" lon="10.478189"><ele>2228</ele></trkpt>
      <trkpt lat="47.201280" lon="10.477938"><ele>2223</ele></trkpt>
      <trkpt lat="47.201369" lon="10.477906"><ele>2222</ele></trkpt>
      <trkpt lat="47.201452" lon="10.477899"><ele>2222</ele></trkpt>
      <trkpt lat="47.201507" lon="10.477912"><ele>2221</ele></trkpt>
      <trkpt lat="47.201541" lon="10.477904"><ele>2220</ele></trkpt>
      <trkpt lat="47.201582" lon="10.477894"><ele>2220</ele></trkpt>
      <trkpt lat="47.201664" lon="10.477898"><ele>2220</ele></trkpt>
      <trkpt lat="47.201793" lon="10.477979"><ele>2218</ele></trkpt>
      <trkpt lat="47.202022" lon="10.478058"><ele>2219</ele></trkpt>
      <trkpt lat="47.202069" lon="10.478142"><ele>2218</ele></trkpt>
      <trkpt lat="47.202167" lon="10.478271"><ele>2218</ele></trkpt>
      <trkpt lat="47.202277" lon="10.478550"><ele>2218</ele></trkpt>
      <trkpt lat="47.202318" lon="10.478714"><ele>2218</ele></trkpt>
      <trkpt lat="47.202376" lon="10.478872"><ele>2218</ele></trkpt>
      <trkpt lat="47.202495" lon="10.479118"><ele>2217</ele></trkpt>
      <trkpt lat="47.202577" lon="10.479218"><ele>2217</ele></trkpt>
      <trkpt lat="47.202650" lon="10.479348"><ele>2216</ele></trkpt>
      <trkpt lat="47.202811" lon="10.479588"><ele>2214</ele></trkpt>
      <trkpt lat="47.202872" lon="10.479605"><ele>2214</ele></trkpt>
      <trkpt lat="47.203000" lon="10.479672"><ele>2214</ele></trkpt>
      <trkpt lat="47.203175" lon="10.479795"><ele>2214</ele></trkpt>
      <trkpt lat="47.203213" lon="10.479844"><ele>2213</ele></trkpt>
      <trkpt lat="47.203521" lon="10.480092"><ele>2211</ele></trkpt>
      <trkpt lat="47.203592" lon="10.480118"><ele>2211</ele></trkpt>
      <trkpt lat="47.203644" lon="10.480172"><ele>2210</ele></trkpt>
      <trkpt lat="47.203714" lon="10.480181"><ele>2211</ele></trkpt>
      <trkpt lat="47.203895" lon="10.480346"><ele>2208</ele></trkpt>
      <trkpt lat="47.203990" lon="10.480496"><ele>2203</ele></trkpt>
      <trkpt lat="47.204120" lon="10.480605"><ele>2198</ele></trkpt>
      <trkpt lat="47.204286" lon="10.480621"><ele>2194</ele></trkpt>
      <trkpt lat="47.204462" lon="10.480683"><ele>2188</ele></trkpt>
      <trkpt lat="47.204605" lon="10.480639"><ele>2183</ele></trkpt>
      <trkpt lat="47.204748" lon="10.480502"><ele>2184</ele></trkpt>
      <trkpt lat="47.204808" lon="10.480421"><ele>2184</ele></trkpt>
      <trkpt lat="47.205068" lon="10.480318"><ele>2168</ele></trkpt>
      <trkpt lat="47.205167" lon="10.480243"><ele>2166</ele></trkpt>
      <trkpt lat="47.205324" lon="10.480158"><ele>2160</ele></trkpt>
      <trkpt lat="47.205425" lon="10.480116"><ele>2156</ele></trkpt>
      <trkpt lat="47.205514" lon="10.480021"><ele>2155</ele></trkpt>
      <trkpt lat="47.205575" lon="10.480025"><ele>2152</ele></trkpt>
      <trkpt lat="47.205675" lon="10.479970"><ele>2150</ele></trkpt>
      <trkpt lat="47.205733" lon="10.479921"><ele>2148</ele></trkpt>
      <trkpt lat="47.205805" lon="10.479901"><ele>2145</ele></trkpt>
      <trkpt lat="47.205845" lon="10.479847"><ele>2143</ele></trkpt>
      <trkpt lat="47.205915" lon="10.480031"><ele>2140</ele></trkpt>
      <trkpt lat="47.206018" lon="10.480077"><ele>2134</ele></trkpt>
      <trkpt lat="47.206093" lon="10.480002"><ele>2134</ele></trkpt>
      <trkpt lat="47.206152" lon="10.479861"><ele>2130</ele></trkpt>
      <trkpt lat="47.206200" lon="10.479871"><ele>2128</ele></trkpt>
      <trkpt lat="47.206339" lon="10.479700"><ele>2124</ele></trkpt>
      <trkpt lat="47.206389" lon="10.479661"><ele>2122</ele></trkpt>
      <trkpt lat="47.206432" lon="10.479615"><ele>2120</ele></trkpt>
      <trkpt lat="47.206452" lon="10.479547"><ele>2119</ele></trkpt>
      <trkpt lat="47.206495" lon="10.479491"><ele>2117</ele></trkpt>
      <trkpt lat="47.206539" lon="10.479415"><ele>2115</ele></trkpt>
      <trkpt lat="47.206523" lon="10.479382"><ele>2115</ele></trkpt>
      <trkpt lat="47.206571" lon="10.479258"><ele>2112</ele></trkpt>
      <trkpt lat="47.206587" lon="10.479171"><ele>2110</ele></trkpt>
      <trkpt lat="47.206622" lon="10.479117"><ele>2108</ele></trkpt>
      <trkpt lat="47.206676" lon="10.479089"><ele>2105</ele></trkpt>
      <trkpt lat="47.206683" lon="10.479058"><ele>2104</ele></trkpt>
      <trkpt lat="47.206749" lon="10.478976"><ele>2099</ele></trkpt>
      <trkpt lat="47.206763" lon="10.478941"><ele>2097</ele></trkpt>
      <trkpt lat="47.206787" lon="10.478911"><ele>2096</ele></trkpt>
      <trkpt lat="47.206803" lon="10.478869"><ele>2094</ele></trkpt>
      <trkpt lat="47.206854" lon="10.478837"><ele>2092</ele></trkpt>
      <trkpt lat="47.206939" lon="10.478905"><ele>2090</ele></trkpt>
      <trkpt lat="47.207150" lon="10.479059"><ele>2083</ele></trkpt>
      <trkpt lat="47.207188" lon="10.479133"><ele>2082</ele></trkpt>
      <trkpt lat="47.207244" lon="10.479155"><ele>2079</ele></trkpt>
      <trkpt lat="47.207298" lon="10.479222"><ele>2076</ele></trkpt>
      <trkpt lat="47.207297" lon="10.479275"><ele>2076</ele></trkpt>
      <trkpt lat="47.207321" lon="10.479329"><ele>2075</ele></trkpt>
      <trkpt lat="47.207350" lon="10.479370"><ele>2073</ele></trkpt>
      <trkpt lat="47.207344" lon="10.479432"><ele>2074</ele></trkpt>
      <trkpt lat="47.207360" lon="10.479515"><ele>2073</ele></trkpt>
      <trkpt lat="47.207390" lon="10.479507"><ele>2071</ele></trkpt>
      <trkpt lat="47.207420" lon="10.479539"><ele>2070</ele></trkpt>
      <trkpt lat="47.207469" lon="10.479505"><ele>2067</ele></trkpt>
      <trkpt lat="47.207521" lon="10.479434"><ele>2064</ele></trkpt>
      <trkpt lat="47.207528" lon="10.479271"><ele>2062</ele></trkpt>
      <trkpt lat="47.207603" lon="10.478896"><ele>2050</ele></trkpt>
      <trkpt lat="47.207638" lon="10.478782"><ele>2048</ele></trkpt>
      <trkpt lat="47.207647" lon="10.478712"><ele>2047</ele></trkpt>
      <trkpt lat="47.207681" lon="10.478677"><ele>2045</ele></trkpt>
      <trkpt lat="47.207686" lon="10.478642"><ele>2044</ele></trkpt>
      <trkpt lat="47.207737" lon="10.478593"><ele>2042</ele></trkpt>
      <trkpt lat="47.207758" lon="10.478582"><ele>2041</ele></trkpt>
      <trkpt lat="47.207784" lon="10.478550"><ele>2040</ele></trkpt>
      <trkpt lat="47.207850" lon="10.478507"><ele>2037</ele></trkpt>
      <trkpt lat="47.207864" lon="10.478508"><ele>2036</ele></trkpt>
      <trkpt lat="47.207899" lon="10.478573"><ele>2035</ele></trkpt>
      <trkpt lat="47.207983" lon="10.478707"><ele>2031</ele></trkpt>
      <trkpt lat="47.208004" lon="10.478754"><ele>2030</ele></trkpt>
      <trkpt lat="47.208014" lon="10.478773"><ele>2030</ele></trkpt>
      <trkpt lat="47.208047" lon="10.478836"><ele>2029</ele></trkpt>
      <trkpt lat="47.208084" lon="10.478836"><ele>2028</ele></trkpt>
      <trkpt lat="47.208167" lon="10.478897"><ele>2026</ele></trkpt>
      <trkpt lat="47.208236" lon="10.479006"><ele>2024</ele></trkpt>
      <trkpt lat="47.208276" lon="10.479159"><ele>2022</ele></trkpt>
      <trkpt lat="47.208260" lon="10.479413"><ele>2022</ele></trkpt>
      <trkpt lat="47.208294" lon="10.479612"><ele>2018</ele></trkpt>
      <trkpt lat="47.208302" lon="10.479814"><ele>2012</ele></trkpt>
      <trkpt lat="47.208160" lon="10.480121"><ele>2015</ele></trkpt>
      <trkpt lat="47.208192" lon="10.480175"><ele>2012</ele></trkpt>
      <trkpt lat="47.208235" lon="10.480247"><ele>2009</ele></trkpt>
      <trkpt lat="47.208363" lon="10.480222"><ele>2003</ele></trkpt>
      <trkpt lat="47.208492" lon="10.480178"><ele>1998</ele></trkpt>
      <trkpt lat="47.208427" lon="10.480033"><ele>1996</ele></trkpt>
      <trkpt lat="47.208442" lon="10.479988"><ele>1995</ele></trkpt>
      <trkpt lat="47.208501" lon="10.480025"><ele>1992</ele></trkpt>
      <trkpt lat="47.208599" lon="10.479978"><ele>1986</ele></trkpt>
      <trkpt lat="47.208578" lon="10.479919"><ele>1988</ele></trkpt>
      <trkpt lat="47.208575" lon="10.479864"><ele>1988</ele></trkpt>
      <trkpt lat="47.208677" lon="10.479905"><ele>1983</ele></trkpt>
      <trkpt lat="47.208724" lon="10.479746"><ele>1978</ele></trkpt>
      <trkpt lat="47.208814" lon="10.479717"><ele>1970</ele></trkpt>
      <trkpt lat="47.208848" lon="10.479783"><ele>1970</ele></trkpt>
      <trkpt lat="47.208872" lon="10.479826"><ele>1971</ele></trkpt>
      <trkpt lat="47.209001" lon="10.479710"><ele>1965</ele></trkpt>
      <trkpt lat="47.209085" lon="10.479654"><ele>1964</ele></trkpt>
      <trkpt lat="47.209191" lon="10.479541"><ele>1955</ele></trkpt>
      <trkpt lat="47.209328" lon="10.479505"><ele>1950</ele></trkpt>
      <trkpt lat="47.209368" lon="10.479463"><ele>1947</ele></trkpt>
      <trkpt lat="47.209420" lon="10.479453"><ele>1946</ele></trkpt>
      <trkpt lat="47.209448" lon="10.479493"><ele>1947</ele></trkpt>
      <trkpt lat="47.209504" lon="10.479544"><ele>1947</ele></trkpt>
      <trkpt lat="47.209523" lon="10.479539"><ele>1946</ele></trkpt>
      <trkpt lat="47.209474" lon="10.479282"><ele>1935</ele></trkpt>
      <trkpt lat="47.209519" lon="10.479320"><ele>1936</ele></trkpt>
      <trkpt lat="47.209523" lon="10.479304"><ele>1934</ele></trkpt>
      <trkpt lat="47.209506" lon="10.479240"><ele>1932</ele></trkpt>
      <trkpt lat="47.209509" lon="10.479224"><ele>1931</ele></trkpt>
      <trkpt lat="47.209524" lon="10.479224"><ele>1930</ele></trkpt>
      <trkpt lat="47.209558" lon="10.479254"><ele>1931</ele></trkpt>
      <trkpt lat="47.209564" lon="10.479247"><ele>1930</ele></trkpt>
      <trkpt lat="47.209558" lon="10.479209"><ele>1929</ele></trkpt>
      <trkpt lat="47.209541" lon="10.479187"><ele>1928</ele></trkpt>
      <trkpt lat="47.209538" lon="10.479164"><ele>1928</ele></trkpt>
      <trkpt lat="47.209564" lon="10.479163"><ele>1927</ele></trkpt>
      <trkpt lat="47.209582" lon="10.479187"><ele>1927</ele></trkpt>
      <trkpt lat="47.209576" lon="10.479127"><ele>1925</ele></trkpt>
      <trkpt lat="47.209638" lon="10.479037"><ele>1920</ele></trkpt>
      <trkpt lat="47.209651" lon="10.478995"><ele>1918</ele></trkpt>
      <trkpt lat="47.209675" lon="10.478956"><ele>1916</ele></trkpt>
      <trkpt lat="47.209680" lon="10.478916"><ele>1915</ele></trkpt>
      <trkpt lat="47.209698" lon="10.478894"><ele>1914</ele></trkpt>
      <trkpt lat="47.209701" lon="10.478866"><ele>1913</ele></trkpt>
      <trkpt lat="47.209719" lon="10.478849"><ele>1912</ele></trkpt>
      <trkpt lat="47.209715" lon="10.478779"><ele>1909</ele></trkpt>
      <trkpt lat="47.209742" lon="10.478719"><ele>1905</ele></trkpt>
      <trkpt lat="47.209758" lon="10.478701"><ele>1904</ele></trkpt>
      <trkpt lat="47.209809" lon="10.478515"><ele>1894</ele></trkpt>
      <trkpt lat="47.209812" lon="10.478490"><ele>1894</ele></trkpt>
      <trkpt lat="47.209845" lon="10.478468"><ele>1892</ele></trkpt>
      <trkpt lat="47.209826" lon="10.478438"><ele>1891</ele></trkpt>
      <trkpt lat="47.209888" lon="10.478398"><ele>1888</ele></trkpt>
      <trkpt lat="47.209857" lon="10.478348"><ele>1887</ele></trkpt>
      <trkpt lat="47.209780" lon="10.478299"><ele>1887</ele></trkpt>
      <trkpt lat="47.209769" lon="10.478273"><ele>1886</ele></trkpt>
      <trkpt lat="47.209728" lon="10.478181"><ele>1884</ele></trkpt>
      <trkpt lat="47.209725" lon="10.478132"><ele>1882</ele></trkpt>
      <trkpt lat="47.209699" lon="10.478077"><ele>1881</ele></trkpt>
      <trkpt lat="47.209643" lon="10.478061"><ele>1882</ele></trkpt>
      <trkpt lat="47.209536" lon="10.477817"><ele>1878</ele></trkpt>
      <trkpt lat="47.209502" lon="10.477738"><ele>1877</ele></trkpt>
      <trkpt lat="47.209510" lon="10.477632"><ele>1874</ele></trkpt>
      <trkpt lat="47.209480" lon="10.477546"><ele>1874</ele></trkpt>
      <trkpt lat="47.209468" lon="10.477396"><ele>1870</ele></trkpt>
      <trkpt lat="47.209334" lon="10.477237"><ele>1870</ele></trkpt>
      <trkpt lat="47.209333" lon="10.476964"><ele>1864</ele></trkpt>
      <trkpt lat="47.209309" lon="10.476900"><ele>1864</ele></trkpt>
      <trkpt lat="47.209303" lon="10.476833"><ele>1862</ele></trkpt>
      <trkpt lat="47.209258" lon="10.476648"><ele>1861</ele></trkpt>
      <trkpt lat="47.209247" lon="10.476468"><ele>1859</ele></trkpt>
      <trkpt lat="47.209282" lon="10.476339"><ele>1856</ele></trkpt>
      <trkpt lat="47.209379" lon="10.476178"><ele>1851</ele></trkpt>
      <trkpt lat="47.209393" lon="10.476077"><ele>1850</ele></trkpt>
      <trkpt lat="47.209363" lon="10.475897"><ele>1848</ele></trkpt>
      <trkpt lat="47.209380" lon="10.475793"><ele>1846</ele></trkpt>
      <trkpt lat="47.209442" lon="10.475618"><ele>1842</ele></trkpt>
      <trkpt lat="47.209516" lon="10.475595"><ele>1840</ele></trkpt>
      <trkpt lat="47.209559" lon="10.475553"><ele>1838</ele></trkpt>
      <trkpt lat="47.209623" lon="10.475474"><ele>1836</ele></trkpt>
      <trkpt lat="47.209802" lon="10.475100"><ele>1829</ele></trkpt>
      <trkpt lat="47.209829" lon="10.474968"><ele>1828</ele></trkpt>
      <trkpt lat="47.209875" lon="10.474844"><ele>1826</ele></trkpt>
      <trkpt lat="47.209979" lon="10.474632"><ele>1820</ele></trkpt>
      <trkpt lat="47.210016" lon="10.474505"><ele>1818</ele></trkpt>
      <trkpt lat="47.210117" lon="10.474419"><ele>1815</ele></trkpt>
      <trkpt lat="47.210206" lon="10.474362"><ele>1812</ele></trkpt>
      <trkpt lat="47.210408" lon="10.474136"><ele>1805</ele></trkpt>
      <trkpt lat="47.210479" lon="10.474040"><ele>1802</ele></trkpt>
      <trkpt lat="47.210473" lon="10.473991"><ele>1802</ele></trkpt>
      <trkpt lat="47.210514" lon="10.473987"><ele>1801</ele></trkpt>
      <trkpt lat="47.210562" lon="10.473968"><ele>1799</ele></trkpt>
      <trkpt lat="47.210599" lon="10.473924"><ele>1797</ele></trkpt>
      <trkpt lat="47.210661" lon="10.473845"><ele>1794</ele></trkpt>
      <trkpt lat="47.210643" lon="10.473800"><ele>1794</ele></trkpt>
      <trkpt lat="47.210656" lon="10.473742"><ele>1792</ele></trkpt>
      <trkpt lat="47.210664" lon="10.473659"><ele>1791</ele></trkpt>
      <trkpt lat="47.210614" lon="10.473560"><ele>1790</ele></trkpt>
      <trkpt lat="47.210595" lon="10.473536"><ele>1790</ele></trkpt>
      <trkpt lat="47.210594" lon="10.473510"><ele>1789</ele></trkpt>
      <trkpt lat="47.210581" lon="10.473450"><ele>1787</ele></trkpt>
      <trkpt lat="47.210539" lon="10.473421"><ele>1787</ele></trkpt>
      <trkpt lat="47.210520" lon="10.473388"><ele>1787</ele></trkpt>
      <trkpt lat="47.210482" lon="10.473360"><ele>1788</ele></trkpt>
      <trkpt lat="47.210464" lon="10.473321"><ele>1787</ele></trkpt>
      <trkpt lat="47.210485" lon="10.473286"><ele>1785</ele></trkpt>
      <trkpt lat="47.210510" lon="10.473274"><ele>1783</ele></trkpt>
      <trkpt lat="47.210547" lon="10.473285"><ele>1782</ele></trkpt>
      <trkpt lat="47.210591" lon="10.473213"><ele>1778</ele></trkpt>
      <trkpt lat="47.210592" lon="10.473182"><ele>1776</ele></trkpt>
      <trkpt lat="47.210642" lon="10.473155"><ele>1774</ele></trkpt>
      <trkpt lat="47.210651" lon="10.473105"><ele>1772</ele></trkpt>
      <trkpt lat="47.210612" lon="10.473080"><ele>1771</ele></trkpt>
      <trkpt lat="47.210577" lon="10.473044"><ele>1770</ele></trkpt>
      <trkpt lat="47.210577" lon="10.473002"><ele>1769</ele></trkpt>
      <trkpt lat="47.210552" lon="10.473002"><ele>1770</ele></trkpt>
      <trkpt lat="47.210539" lon="10.472956"><ele>1769</ele></trkpt>
      <trkpt lat="47.210524" lon="10.472936"><ele>1770</ele></trkpt>
      <trkpt lat="47.210514" lon="10.472905"><ele>1770</ele></trkpt>
      <trkpt lat="47.210533" lon="10.472904"><ele>1768</ele></trkpt>
      <trkpt lat="47.210555" lon="10.472868"><ele>1765</ele></trkpt>
      <trkpt lat="47.210582" lon="10.472861"><ele>1764</ele></trkpt>
      <trkpt lat="47.210607" lon="10.472816"><ele>1762</ele></trkpt>
      <trkpt lat="47.210645" lon="10.472809"><ele>1760</ele></trkpt>
      <trkpt lat="47.210664" lon="10.472771"><ele>1758</ele></trkpt>
      <trkpt lat="47.210649" lon="10.472734"><ele>1757</ele></trkpt>
      <trkpt lat="47.210598" lon="10.472746"><ele>1759</ele></trkpt>
      <trkpt lat="47.210536" lon="10.472644"><ele>1759</ele></trkpt>
      <trkpt lat="47.210546" lon="10.472613"><ele>1757</ele></trkpt>
      <trkpt lat="47.210606" lon="10.472608"><ele>1754</ele></trkpt>
      <trkpt lat="47.210640" lon="10.472625"><ele>1753</ele></trkpt>
      <trkpt lat="47.210708" lon="10.472623"><ele>1751</ele></trkpt>
      <trkpt lat="47.210759" lon="10.472653"><ele>1750</ele></trkpt>
      <trkpt lat="47.210851" lon="10.472687"><ele>1748</ele></trkpt>
      <trkpt lat="47.210855" lon="10.472600"><ele>1744</ele></trkpt>
      <trkpt lat="47.210837" lon="10.472576"><ele>1744</ele></trkpt>
      <trkpt lat="47.210848" lon="10.472532"><ele>1742</ele></trkpt>
      <trkpt lat="47.210817" lon="10.472430"><ele>1739</ele></trkpt>
      <trkpt lat="47.210773" lon="10.472380"><ele>1740</ele></trkpt>
      <trkpt lat="47.210766" lon="10.472330"><ele>1738</ele></trkpt>
      <trkpt lat="47.210745" lon="10.472302"><ele>1738</ele></trkpt>
      <trkpt lat="47.210748" lon="10.472232"><ele>1736</ele></trkpt>
      <trkpt lat="47.210709" lon="10.472176"><ele>1736</ele></trkpt>
      <trkpt lat="47.210701" lon="10.472093"><ele>1733</ele></trkpt>
      <trkpt lat="47.210663" lon="10.471983"><ele>1731</ele></trkpt>
      <trkpt lat="47.210652" lon="10.471891"><ele>1729</ele></trkpt>
      <trkpt lat="47.210636" lon="10.471714"><ele>1724</ele></trkpt>
      <trkpt lat="47.210588" lon="10.471606"><ele>1722</ele></trkpt>
      <trkpt lat="47.210670" lon="10.471579"><ele>1716</ele></trkpt>
      <trkpt lat="47.210784" lon="10.471645"><ele>1713</ele></trkpt>
      <trkpt lat="47.210917" lon="10.471934"><ele>1714</ele></trkpt>
      <trkpt lat="47.210998" lon="10.472016"><ele>1713</ele></trkpt>
      <trkpt lat="47.211060" lon="10.472035"><ele>1710</ele></trkpt>
      <trkpt lat="47.211187" lon="10.472157"><ele>1710</ele></trkpt>
      <trkpt lat="47.211246" lon="10.472150"><ele>1707</ele></trkpt>
      <trkpt lat="47.211266" lon="10.472125"><ele>1705</ele></trkpt>
      <trkpt lat="47.211300" lon="10.472173"><ele>1706</ele></trkpt>
      <trkpt lat="47.211317" lon="10.472167"><ele>1704</ele></trkpt>
      <trkpt lat="47.211295" lon="10.472098"><ele>1702</ele></trkpt>
      <trkpt lat="47.211287" lon="10.472023"><ele>1699</ele></trkpt>
      <trkpt lat="47.211270" lon="10.472000"><ele>1698</ele></trkpt>
      <trkpt lat="47.211238" lon="10.471885"><ele>1694</ele></trkpt>
      <trkpt lat="47.211196" lon="10.471866"><ele>1695</ele></trkpt>
      <trkpt lat="47.211201" lon="10.471813"><ele>1692</ele></trkpt>
      <trkpt lat="47.211151" lon="10.471698"><ele>1689</ele></trkpt>
      <trkpt lat="47.211150" lon="10.471678"><ele>1688</ele></trkpt>
      <trkpt lat="47.211146" lon="10.471623"><ele>1686</ele></trkpt>
      <trkpt lat="47.211110" lon="10.471563"><ele>1687</ele></trkpt>
      <trkpt lat="47.211101" lon="10.471532"><ele>1686</ele></trkpt>
      <trkpt lat="47.211089" lon="10.471465"><ele>1684</ele></trkpt>
      <trkpt lat="47.211033" lon="10.471373"><ele>1684</ele></trkpt>
      <trkpt lat="47.210997" lon="10.471258"><ele>1680</ele></trkpt>
      <trkpt lat="47.210978" lon="10.471202"><ele>1678</ele></trkpt>
      <trkpt lat="47.210964" lon="10.471102"><ele>1674</ele></trkpt>
      <trkpt lat="47.210886" lon="10.470960"><ele>1672</ele></trkpt>
      <trkpt lat="47.210825" lon="10.470880"><ele>1671</ele></trkpt>
      <trkpt lat="47.210803" lon="10.470727"><ele>1666</ele></trkpt>
      <trkpt lat="47.210803" lon="10.470694"><ele>1664</ele></trkpt>
      <trkpt lat="47.210826" lon="10.470692"><ele>1663</ele></trkpt>
      <trkpt lat="47.210881" lon="10.470752"><ele>1663</ele></trkpt>
      <trkpt lat="47.210969" lon="10.470761"><ele>1661</ele></trkpt>
      <trkpt lat="47.211042" lon="10.470727"><ele>1658</ele></trkpt>
      <trkpt lat="47.211050" lon="10.470701"><ele>1656</ele></trkpt>
      <trkpt lat="47.211043" lon="10.470621"><ele>1654</ele></trkpt>
      <trkpt lat="47.211020" lon="10.470586"><ele>1653</ele></trkpt>
      <trkpt lat="47.211012" lon="10.470525"><ele>1651</ele></trkpt>
      <trkpt lat="47.210956" lon="10.470473"><ele>1650</ele></trkpt>
      <trkpt lat="47.210941" lon="10.470397"><ele>1648</ele></trkpt>
      <trkpt lat="47.210821" lon="10.470180"><ele>1642</ele></trkpt>
      <trkpt lat="47.210811" lon="10.470135"><ele>1640</ele></trkpt>
      <trkpt lat="47.210780" lon="10.470124"><ele>1641</ele></trkpt>
      <trkpt lat="47.210653" lon="10.469912"><ele>1636</ele></trkpt>
      <trkpt lat="47.210591" lon="10.469747"><ele>1632</ele></trkpt>
      <trkpt lat="47.210607" lon="10.469737"><ele>1630</ele></trkpt>
      <trkpt lat="47.210859" lon="10.469780"><ele>1622</ele></trkpt>
      <trkpt lat="47.211000" lon="10.469734"><ele>1614</ele></trkpt>
      <trkpt lat="47.210979" lon="10.469667"><ele>1612</ele></trkpt>
      <trkpt lat="47.210930" lon="10.469627"><ele>1613</ele></trkpt>
      <trkpt lat="47.210888" lon="10.469571"><ele>1612</ele></trkpt>
      <trkpt lat="47.210901" lon="10.469547"><ele>1611</ele></trkpt>
      <trkpt lat="47.210777" lon="10.469248"><ele>1603</ele></trkpt>
      <trkpt lat="47.210792" lon="10.469186"><ele>1600</ele></trkpt>
      <trkpt lat="47.210750" lon="10.469116"><ele>1598</ele></trkpt>
      <trkpt lat="47.210722" lon="10.469074"><ele>1596</ele></trkpt>
      <trkpt lat="47.210705" lon="10.468997"><ele>1593</ele></trkpt>
      <trkpt lat="47.210546" lon="10.468815"><ele>1587</ele></trkpt>
      <trkpt lat="47.210389" lon="10.468711"><ele>1584</ele></trkpt>
      <trkpt lat="47.210306" lon="10.468609"><ele>1578</ele></trkpt>
      <trkpt lat="47.210226" lon="10.468540"><ele>1577</ele></trkpt>
      <trkpt lat="47.210192" lon="10.468523"><ele>1577</ele></trkpt>
      <trkpt lat="47.210196" lon="10.468472"><ele>1574</ele></trkpt>
      <trkpt lat="47.210222" lon="10.468472"><ele>1574</ele></trkpt>
      <trkpt lat="47.210253" lon="10.468453"><ele>1572</ele></trkpt>
      <trkpt lat="47.210312" lon="10.468467"><ele>1571</ele></trkpt>
      <trkpt lat="47.210322" lon="10.468427"><ele>1569</ele></trkpt>
      <trkpt lat="47.210235" lon="10.468339"><ele>1566</ele></trkpt>
      <trkpt lat="47.210165" lon="10.468236"><ele>1563</ele></trkpt>
      <trkpt lat="47.210068" lon="10.468054"><ele>1556</ele></trkpt>
      <trkpt lat="47.209983" lon="10.468055"><ele>1558</ele></trkpt>
      <trkpt lat="47.209701" lon="10.467651"><ele>1541</ele></trkpt>
      <trkpt lat="47.209865" lon="10.467527"><ele>1533</ele></trkpt>
      <trkpt lat="47.210128" lon="10.467470"><ele>1527</ele></trkpt>
      <trkpt lat="47.210397" lon="10.467375"><ele>1518</ele></trkpt>
      <trkpt lat="47.210515" lon="10.467297"><ele>1513</ele></trkpt>
      <trkpt lat="47.210510" lon="10.467271"><ele>1512</ele></trkpt>
      <trkpt lat="47.210488" lon="10.467264"><ele>1512</ele></trkpt>
      <trkpt lat="47.210483" lon="10.467214"><ele>1510</ele></trkpt>
      <trkpt lat="47.210410" lon="10.467119"><ele>1507</ele></trkpt>
      <trkpt lat="47.210199" lon="10.466878"><ele>1499</ele></trkpt>
      <trkpt lat="47.210181" lon="10.466776"><ele>1495</ele></trkpt>
      <trkpt lat="47.210109" lon="10.466695"><ele>1493</ele></trkpt>
      <trkpt lat="47.210112" lon="10.466656"><ele>1491</ele></trkpt>
      <trkpt lat="47.210158" lon="10.466674"><ele>1492</ele></trkpt>
      <trkpt lat="47.210234" lon="10.466608"><ele>1488</ele></trkpt>
      <trkpt lat="47.210313" lon="10.466525"><ele>1484</ele></trkpt>
      <trkpt lat="47.210333" lon="10.466469"><ele>1481</ele></trkpt>
      <trkpt lat="47.210304" lon="10.466424"><ele>1480</ele></trkpt>
      <trkpt lat="47.210206" lon="10.466381"><ele>1479</ele></trkpt>
      <trkpt lat="47.210113" lon="10.466249"><ele>1476</ele></trkpt>
      <trkpt lat="47.210139" lon="10.466213"><ele>1474</ele></trkpt>
      <trkpt lat="47.210278" lon="10.466189"><ele>1472</ele></trkpt>
      <trkpt lat="47.210307" lon="10.466036"><ele>1468</ele></trkpt>
      <trkpt lat="47.210234" lon="10.465935"><ele>1466</ele></trkpt>
      <trkpt lat="47.210173" lon="10.465756"><ele>1462</ele></trkpt>
      <trkpt lat="47.210094" lon="10.465688"><ele>1461</ele></trkpt>
      <trkpt lat="47.209933" lon="10.465633"><ele>1458</ele></trkpt>
      <trkpt lat="47.209939" lon="10.465528"><ele>1456</ele></trkpt>
      <trkpt lat="47.210033" lon="10.465255"><ele>1453</ele></trkpt>
      <trkpt lat="47.210010" lon="10.465189"><ele>1452</ele></trkpt>
      <trkpt lat="47.210033" lon="10.465058"><ele>1451</ele></trkpt>
      <trkpt lat="47.210017" lon="10.465009"><ele>1451</ele></trkpt>
      <trkpt lat="47.210061" lon="10.464903"><ele>1450</ele></trkpt>
      <trkpt lat="47.210094" lon="10.464651"><ele>1448</ele></trkpt>
      <trkpt lat="47.210090" lon="10.464423"><ele>1446</ele></trkpt>
      <trkpt lat="47.210125" lon="10.464350"><ele>1444</ele></trkpt>
      <trkpt lat="47.210114" lon="10.464190"><ele>1440</ele></trkpt>
      <trkpt lat="47.210141" lon="10.464177"><ele>1440</ele></trkpt>
      <trkpt lat="47.210209" lon="10.464099"><ele>1439</ele></trkpt>
      <trkpt lat="47.210296" lon="10.463964"><ele>1436</ele></trkpt>
      <trkpt lat="47.210329" lon="10.463495"><ele>1435</ele></trkpt>
      <trkpt lat="47.210322" lon="10.463453"><ele>1435</ele></trkpt>
      <trkpt lat="47.210397" lon="10.463419"><ele>1435</ele></trkpt>
      <trkpt lat="47.210491" lon="10.463357"><ele>1434</ele></trkpt>
      <trkpt lat="47.210592" lon="10.463290"><ele>1434</ele></trkpt>
      <trkpt lat="47.210747" lon="10.463036"><ele>1434</ele></trkpt>
      <trkpt lat="47.210865" lon="10.462932"><ele>1432</ele></trkpt>
      <trkpt lat="47.211037" lon="10.462861"><ele>1431</ele></trkpt>
      <trkpt lat="47.211243" lon="10.462839"><ele>1430</ele></trkpt>
      <trkpt lat="47.211621" lon="10.462832"><ele>1428</ele></trkpt>
      <trkpt lat="47.211985" lon="10.462609"><ele>1427</ele></trkpt>
      <trkpt lat="47.212451" lon="10.462458"><ele>1424</ele></trkpt>
      <trkpt lat="47.212859" lon="10.462449"><ele>1422</ele></trkpt>
      <trkpt lat="47.213265" lon="10.462384"><ele>1420</ele></trkpt>
      <trkpt lat="47.213597" lon="10.462347"><ele>1420</ele></trkpt>
      <trkpt lat="47.213701" lon="10.462307"><ele>1419</ele></trkpt>
      <trkpt lat="47.213899" lon="10.462184"><ele>1419</ele></trkpt>
      <trkpt lat="47.214051" lon="10.462127"><ele>1419</ele></trkpt>
      <trkpt lat="47.214211" lon="10.462102"><ele>1418</ele></trkpt>
      <trkpt lat="47.214490" lon="10.462076"><ele>1417</ele></trkpt>
      <trkpt lat="47.214737" lon="10.462106"><ele>1417</ele></trkpt>
      <trkpt lat="47.215045" lon="10.462259"><ele>1414</ele></trkpt>
      <trkpt lat="47.215321" lon="10.462449"><ele>1414</ele></trkpt>
      <trkpt lat="47.215503" lon="10.462538"><ele>1413</ele></trkpt>
      <trkpt lat="47.215794" lon="10.462589"><ele>1412</ele></trkpt>
      <trkpt lat="47.216093" lon="10.462694"><ele>1411</ele></trkpt>
      <trkpt lat="47.216330" lon="10.462739"><ele>1410</ele></trkpt>
      <trkpt lat="47.216558" lon="10.462709"><ele>1410</ele></trkpt>
      <trkpt lat="47.217098" lon="10.462344"><ele>1409</ele></trkpt>
      <trkpt lat="47.217369" lon="10.462073"><ele>1409</ele></trkpt>
      <trkpt lat="47.217510" lon="10.462025"><ele>1407</ele></trkpt>
      <trkpt lat="47.217649" lon="10.462051"><ele>1407</ele></trkpt>
      <trkpt lat="47.217986" lon="10.462256"><ele>1405</ele></trkpt>
      <trkpt lat="47.218507" lon="10.462465"><ele>1406</ele></trkpt>
      <trkpt lat="47.218953" lon="10.462682"><ele>1405</ele></trkpt>
      <trkpt lat="47.219104" lon="10.462694"><ele>1404</ele></trkpt>
      <trkpt lat="47.219277" lon="10.462575"><ele>1406</ele></trkpt>
      <trkpt lat="47.219452" lon="10.462553"><ele>1406</ele></trkpt>
      <trkpt lat="47.219875" lon="10.462771"><ele>1404</ele></trkpt>
      <trkpt lat="47.219931" lon="10.462758"><ele>1404</ele></trkpt>
      <trkpt lat="47.219968" lon="10.462709"><ele>1404</ele></trkpt>
      <trkpt lat="47.219992" lon="10.462604"><ele>1406</ele></trkpt>
      <trkpt lat="47.220083" lon="10.462299"><ele>1408</ele></trkpt>
      <trkpt lat="47.220270" lon="10.462074"><ele>1407</ele></trkpt>
      <trkpt lat="47.220369" lon="10.462007"><ele>1408</ele></trkpt>
      <trkpt lat="47.220653" lon="10.461974"><ele>1405</ele></trkpt>
      <trkpt lat="47.220735" lon="10.461945"><ele>1404</ele></trkpt>
      <trkpt lat="47.220808" lon="10.461881"><ele>1404</ele></trkpt>
      <trkpt lat="47.220868" lon="10.461800"><ele>1403</ele></trkpt>
      <trkpt lat="47.220979" lon="10.461514"><ele>1403</ele></trkpt>
      <trkpt lat="47.221009" lon="10.461287"><ele>1402</ele></trkpt>
      <trkpt lat="47.220983" lon="10.461151"><ele>1401</ele></trkpt>
      <trkpt lat="47.220812" lon="10.460957"><ele>1406</ele></trkpt>
      <trkpt lat="47.220810" lon="10.460903"><ele>1406</ele></trkpt>
      <trkpt lat="47.220829" lon="10.460842"><ele>1403</ele></trkpt>
      <trkpt lat="47.221185" lon="10.460559"><ele>1398</ele></trkpt>
      <trkpt lat="47.221569" lon="10.460416"><ele>1395</ele></trkpt>
      <trkpt lat="47.221655" lon="10.460413"><ele>1392</ele></trkpt>
      <trkpt lat="47.221833" lon="10.460523"><ele>1388</ele></trkpt>
      <trkpt lat="47.222209" lon="10.460662"><ele>1381</ele></trkpt>
      <trkpt lat="47.222818" lon="10.460293"><ele>1376</ele></trkpt>
      <trkpt lat="47.222918" lon="10.460040"><ele>1377</ele></trkpt>
      <trkpt lat="47.223037" lon="10.459875"><ele>1376</ele></trkpt>
      <trkpt lat="47.223427" lon="10.459713"><ele>1368</ele></trkpt>
      <trkpt lat="47.223981" lon="10.459604"><ele>1360</ele></trkpt>
      <trkpt lat="47.224388" lon="10.459433"><ele>1354</ele></trkpt>
      <trkpt lat="47.224524" lon="10.459284"><ele>1356</ele></trkpt>
      <trkpt lat="47.224578" lon="10.459263"><ele>1355</ele></trkpt>
      <trkpt lat="47.224617" lon="10.459298"><ele>1354</ele></trkpt>
      <trkpt lat="47.224595" lon="10.459367"><ele>1352</ele></trkpt>
      <trkpt lat="47.224477" lon="10.459489"><ele>1352</ele></trkpt>
      <trkpt lat="47.224375" lon="10.459699"><ele>1350</ele></trkpt>
      <trkpt lat="47.224264" lon="10.460002"><ele>1348</ele></trkpt>
      <trkpt lat="47.224194" lon="10.460263"><ele>1345</ele></trkpt>
      <trkpt lat="47.224206" lon="10.460394"><ele>1342</ele></trkpt>
      <trkpt lat="47.224283" lon="10.460488"><ele>1340</ele></trkpt>
      <trkpt lat="47.224463" lon="10.460496"><ele>1340</ele></trkpt>
      <trkpt lat="47.224667" lon="10.460363"><ele>1338</ele></trkpt>
      <trkpt lat="47.224909" lon="10.460151"><ele>1338</ele></trkpt>
      <trkpt lat="47.225131" lon="10.459989"><ele>1334</ele></trkpt>
      <trkpt lat="47.225237" lon="10.459871"><ele>1333</ele></trkpt>
      <trkpt lat="47.225261" lon="10.459828"><ele>1333</ele></trkpt>
      <trkpt lat="47.225394" lon="10.459988"><ele>1328</ele></trkpt>
      <trkpt lat="47.225405" lon="10.459934"><ele>1328</ele></trkpt>
      <trkpt lat="47.225474" lon="10.459757"><ele>1328</ele></trkpt>
      <trkpt lat="47.225561" lon="10.459558"><ele>1328</ele></trkpt>
      <trkpt lat="47.225646" lon="10.459448"><ele>1328</ele></trkpt>
      <trkpt lat="47.225886" lon="10.459295"><ele>1326</ele></trkpt>
      <trkpt lat="47.226132" lon="10.459054"><ele>1325</ele></trkpt>
      <trkpt lat="47.226221" lon="10.458955"><ele>1324</ele></trkpt>
      <trkpt lat="47.226266" lon="10.458874"><ele>1324</ele></trkpt>
      <trkpt lat="47.226276" lon="10.458798"><ele>1325</ele></trkpt>
      <trkpt lat="47.226348" lon="10.458720"><ele>1324</ele></trkpt>
      <trkpt lat="47.226541" lon="10.458507"><ele>1322</ele></trkpt>
      <trkpt lat="47.227629" lon="10.457645"><ele>1320</ele></trkpt>
      <trkpt lat="47.227726" lon="10.457543"><ele>1318</ele></trkpt>
      <trkpt lat="47.227842" lon="10.457403"><ele>1317</ele></trkpt>
      <trkpt lat="47.227903" lon="10.457398"><ele>1316</ele></trkpt>
      <trkpt lat="47.227935" lon="10.457470"><ele>1314</ele></trkpt>
      <trkpt lat="47.227950" lon="10.457692"><ele>1314</ele></trkpt>
      <trkpt lat="47.227985" lon="10.457750"><ele>1314</ele></trkpt>
      <trkpt lat="47.228044" lon="10.457720"><ele>1312</ele></trkpt>
      <trkpt lat="47.228173" lon="10.457323"><ele>1310</ele></trkpt>
      <trkpt lat="47.228355" lon="10.457119"><ele>1309</ele></trkpt>
      <trkpt lat="47.228461" lon="10.457043"><ele>1306</ele></trkpt>
      <trkpt lat="47.228564" lon="10.456889"><ele>1303</ele></trkpt>
      <trkpt lat="47.228830" lon="10.456137"><ele>1299</ele></trkpt>
      <trkpt lat="47.229134" lon="10.455677"><ele>1293</ele></trkpt>
      <trkpt lat="47.229373" lon="10.455214"><ele>1291</ele></trkpt>
      <trkpt lat="47.229456" lon="10.455168"><ele>1288</ele></trkpt>
      <trkpt lat="47.229529" lon="10.455121"><ele>1290</ele></trkpt>
      <trkpt lat="47.229596" lon="10.455060"><ele>1291</ele></trkpt>
      <trkpt lat="47.229702" lon="10.454767"><ele>1290</ele></trkpt>
      <trkpt lat="47.229793" lon="10.454680"><ele>1290</ele></trkpt>
      <trkpt lat="47.229836" lon="10.454639"><ele>1289</ele></trkpt>
      <trkpt lat="47.229986" lon="10.454580"><ele>1289</ele></trkpt>
      <trkpt lat="47.230128" lon="10.454482"><ele>1290</ele></trkpt>
      <trkpt lat="47.230460" lon="10.453945"><ele>1288</ele></trkpt>
      <trkpt lat="47.230548" lon="10.453687"><ele>1286</ele></trkpt>
      <trkpt lat="47.230632" lon="10.453420"><ele>1282</ele></trkpt>
      <trkpt lat="47.230757" lon="10.453212"><ele>1282</ele></trkpt>
      <trkpt lat="47.230933" lon="10.452967"><ele>1278</ele></trkpt>
      <trkpt lat="47.231086" lon="10.452654"><ele>1275</ele></trkpt>
      <trkpt lat="47.231146" lon="10.452427"><ele>1272</ele></trkpt>
      <trkpt lat="47.231196" lon="10.452213"><ele>1270</ele></trkpt>
      <trkpt lat="47.231264" lon="10.452045"><ele>1269</ele></trkpt>
      <trkpt lat="47.231526" lon="10.451778"><ele>1267</ele></trkpt>
      <trkpt lat="47.231615" lon="10.451701"><ele>1267</ele></trkpt>
      <trkpt lat="47.231625" lon="10.451691"><ele>1267</ele></trkpt>
      <trkpt lat="47.231645" lon="10.451748"><ele>1268</ele></trkpt>
      <trkpt lat="47.231675" lon="10.451782"><ele>1269</ele></trkpt>
      <trkpt lat="47.231703" lon="10.451869"><ele>1271</ele></trkpt>
      <trkpt lat="47.231714" lon="10.452091"><ele>1274</ele></trkpt>
      <trkpt lat="47.231732" lon="10.452214"><ele>1277</ele></trkpt>
      <trkpt lat="47.231762" lon="10.452234"><ele>1279</ele></trkpt>
      <trkpt lat="47.231855" lon="10.451953"><ele>1283</ele></trkpt>
      <trkpt lat="47.231966" lon="10.451825"><ele>1286</ele></trkpt>
      <trkpt lat="47.232132" lon="10.451783"><ele>1290</ele></trkpt>
      <trkpt lat="47.232174" lon="10.451717"><ele>1290</ele></trkpt>
      <trkpt lat="47.232231" lon="10.451606"><ele>1290</ele></trkpt>
      <trkpt lat="47.232293" lon="10.451510"><ele>1290</ele></trkpt>
      <trkpt lat="47.232472" lon="10.451348"><ele>1296</ele></trkpt>
      <trkpt lat="47.232486" lon="10.451282"><ele>1296</ele></trkpt>
      <trkpt lat="47.232533" lon="10.451243"><ele>1297</ele></trkpt>
      <trkpt lat="47.232570" lon="10.451042"><ele>1296</ele></trkpt>
      <trkpt lat="47.232654" lon="10.450917"><ele>1297</ele></trkpt>
      <trkpt lat="47.233006" lon="10.451007"><ele>1303</ele></trkpt>
      <trkpt lat="47.233021" lon="10.451100"><ele>1304</ele></trkpt>
      <trkpt lat="47.233146" lon="10.451275"><ele>1307</ele></trkpt>
      <trkpt lat="47.233199" lon="10.451146"><ele>1306</ele></trkpt>
      <trkpt lat="47.233228" lon="10.451127"><ele>1306</ele></trkpt>
      <trkpt lat="47.233307" lon="10.451143"><ele>1306</ele></trkpt>
      <trkpt lat="47.233398" lon="10.451205"><ele>1308</ele></trkpt>
      <trkpt lat="47.233509" lon="10.451255"><ele>1308</ele></trkpt>
      <trkpt lat="47.233634" lon="10.451251"><ele>1308</ele></trkpt>
      <trkpt lat="47.233761" lon="10.451206"><ele>1309</ele></trkpt>
      <trkpt lat="47.233857" lon="10.451131"><ele>1309</ele></trkpt>
      <trkpt lat="47.233805" lon="10.451320"><ele>1310</ele></trkpt>
      <trkpt lat="47.233726" lon="10.451383"><ele>1311</ele></trkpt>
      <trkpt lat="47.233622" lon="10.451436"><ele>1311</ele></trkpt>
      <trkpt lat="47.233531" lon="10.451509"><ele>1312</ele></trkpt>
      <trkpt lat="47.233410" lon="10.451561"><ele>1313</ele></trkpt>
      <trkpt lat="47.233373" lon="10.451622"><ele>1314</ele></trkpt>
      <trkpt lat="47.233369" lon="10.451714"><ele>1314</ele></trkpt>
      <trkpt lat="47.233374" lon="10.451857"><ele>1316</ele></trkpt>
      <trkpt lat="47.233376" lon="10.451927"><ele>1317</ele></trkpt>
      <trkpt lat="47.233304" lon="10.452121"><ele>1317</ele></trkpt>
      <trkpt lat="47.233314" lon="10.452296"><ele>1319</ele></trkpt>
      <trkpt lat="47.233315" lon="10.452462"><ele>1320</ele></trkpt>
  </trkseg></trk>
  <trk><name>Ansbacher Hütte naar Flirsch</name><trkseg>
      <trkpt lat="47.168314" lon="10.403299"><ele>2374</ele></trkpt>
      <trkpt lat="47.168453" lon="10.403284"><ele>2378</ele></trkpt>
      <trkpt lat="47.168519" lon="10.403275"><ele>2379</ele></trkpt>
      <trkpt lat="47.168540" lon="10.403290"><ele>2379</ele></trkpt>
      <trkpt lat="47.168547" lon="10.403302"><ele>2379</ele></trkpt>
      <trkpt lat="47.168568" lon="10.403443"><ele>2378</ele></trkpt>
      <trkpt lat="47.168573" lon="10.403548"><ele>2378</ele></trkpt>
      <trkpt lat="47.168586" lon="10.403635"><ele>2376</ele></trkpt>
      <trkpt lat="47.168617" lon="10.403679"><ele>2376</ele></trkpt>
      <trkpt lat="47.168718" lon="10.403663"><ele>2375</ele></trkpt>
      <trkpt lat="47.168796" lon="10.403638"><ele>2374</ele></trkpt>
      <trkpt lat="47.168921" lon="10.403552"><ele>2376</ele></trkpt>
      <trkpt lat="47.168997" lon="10.403519"><ele>2377</ele></trkpt>
      <trkpt lat="47.169117" lon="10.403498"><ele>2377</ele></trkpt>
      <trkpt lat="47.169177" lon="10.403508"><ele>2376</ele></trkpt>
      <trkpt lat="47.169247" lon="10.403561"><ele>2374</ele></trkpt>
      <trkpt lat="47.169376" lon="10.403599"><ele>2374</ele></trkpt>
      <trkpt lat="47.169500" lon="10.403712"><ele>2370</ele></trkpt>
      <trkpt lat="47.169629" lon="10.403751"><ele>2369</ele></trkpt>
      <trkpt lat="47.169889" lon="10.403796"><ele>2370</ele></trkpt>
      <trkpt lat="47.170131" lon="10.403911"><ele>2366</ele></trkpt>
      <trkpt lat="47.170030" lon="10.404063"><ele>2360</ele></trkpt>
      <trkpt lat="47.169767" lon="10.404171"><ele>2352</ele></trkpt>
      <trkpt lat="47.169626" lon="10.404258"><ele>2346</ele></trkpt>
      <trkpt lat="47.169502" lon="10.404402"><ele>2343</ele></trkpt>
      <trkpt lat="47.169217" lon="10.404778"><ele>2332</ele></trkpt>
      <trkpt lat="47.169189" lon="10.404791"><ele>2332</ele></trkpt>
      <trkpt lat="47.169158" lon="10.404772"><ele>2334</ele></trkpt>
      <trkpt lat="47.169139" lon="10.404883"><ele>2328</ele></trkpt>
      <trkpt lat="47.169129" lon="10.404888"><ele>2328</ele></trkpt>
      <trkpt lat="47.169098" lon="10.404868"><ele>2328</ele></trkpt>
      <trkpt lat="47.169077" lon="10.404897"><ele>2326</ele></trkpt>
      <trkpt lat="47.169075" lon="10.404966"><ele>2323</ele></trkpt>
      <trkpt lat="47.169034" lon="10.404944"><ele>2323</ele></trkpt>
      <trkpt lat="47.169002" lon="10.404883"><ele>2324</ele></trkpt>
      <trkpt lat="47.168826" lon="10.404867"><ele>2320</ele></trkpt>
      <trkpt lat="47.168816" lon="10.404945"><ele>2317</ele></trkpt>
      <trkpt lat="47.168889" lon="10.405050"><ele>2316</ele></trkpt>
      <trkpt lat="47.168766" lon="10.405087"><ele>2310</ele></trkpt>
      <trkpt lat="47.168859" lon="10.405305"><ele>2307</ele></trkpt>
      <trkpt lat="47.169007" lon="10.405389"><ele>2303</ele></trkpt>
      <trkpt lat="47.168895" lon="10.405499"><ele>2298</ele></trkpt>
      <trkpt lat="47.168965" lon="10.405553"><ele>2296</ele></trkpt>
      <trkpt lat="47.168969" lon="10.405577"><ele>2295</ele></trkpt>
      <trkpt lat="47.168774" lon="10.405594"><ele>2292</ele></trkpt>
      <trkpt lat="47.168915" lon="10.405942"><ele>2284</ele></trkpt>
      <trkpt lat="47.168887" lon="10.406012"><ele>2282</ele></trkpt>
      <trkpt lat="47.168703" lon="10.405992"><ele>2278</ele></trkpt>
      <trkpt lat="47.168715" lon="10.406109"><ele>2274</ele></trkpt>
      <trkpt lat="47.168812" lon="10.406223"><ele>2272</ele></trkpt>
      <trkpt lat="47.168816" lon="10.406289"><ele>2269</ele></trkpt>
      <trkpt lat="47.168757" lon="10.406315"><ele>2267</ele></trkpt>
      <trkpt lat="47.168778" lon="10.406369"><ele>2265</ele></trkpt>
      <trkpt lat="47.168679" lon="10.406369"><ele>2265</ele></trkpt>
      <trkpt lat="47.168700" lon="10.406489"><ele>2261</ele></trkpt>
      <trkpt lat="47.168598" lon="10.406436"><ele>2262</ele></trkpt>
      <trkpt lat="47.168541" lon="10.406636"><ele>2254</ele></trkpt>
      <trkpt lat="47.168622" lon="10.406726"><ele>2252</ele></trkpt>
      <trkpt lat="47.168725" lon="10.406766"><ele>2249</ele></trkpt>
      <trkpt lat="47.168695" lon="10.406799"><ele>2247</ele></trkpt>
      <trkpt lat="47.168704" lon="10.406823"><ele>2246</ele></trkpt>
      <trkpt lat="47.168730" lon="10.406828"><ele>2246</ele></trkpt>
      <trkpt lat="47.168744" lon="10.406849"><ele>2245</ele></trkpt>
      <trkpt lat="47.168738" lon="10.406879"><ele>2243</ele></trkpt>
      <trkpt lat="47.168835" lon="10.406912"><ele>2242</ele></trkpt>
      <trkpt lat="47.168855" lon="10.406982"><ele>2240</ele></trkpt>
      <trkpt lat="47.168855" lon="10.407244"><ele>2229</ele></trkpt>
      <trkpt lat="47.168809" lon="10.407766"><ele>2210</ele></trkpt>
      <trkpt lat="47.168853" lon="10.407758"><ele>2211</ele></trkpt>
      <trkpt lat="47.168848" lon="10.407856"><ele>2208</ele></trkpt>
      <trkpt lat="47.168890" lon="10.407936"><ele>2206</ele></trkpt>
      <trkpt lat="47.168884" lon="10.408065"><ele>2202</ele></trkpt>
      <trkpt lat="47.168817" lon="10.408502"><ele>2193</ele></trkpt>
      <trkpt lat="47.168702" lon="10.408898"><ele>2188</ele></trkpt>
      <trkpt lat="47.168606" lon="10.409112"><ele>2185</ele></trkpt>
      <trkpt lat="47.168600" lon="10.409139"><ele>2184</ele></trkpt>
      <trkpt lat="47.168578" lon="10.409172"><ele>2184</ele></trkpt>
      <trkpt lat="47.168513" lon="10.409335"><ele>2179</ele></trkpt>
      <trkpt lat="47.168472" lon="10.409384"><ele>2176</ele></trkpt>
      <trkpt lat="47.168436" lon="10.409490"><ele>2174</ele></trkpt>
      <trkpt lat="47.168434" lon="10.409511"><ele>2173</ele></trkpt>
      <trkpt lat="47.168420" lon="10.409499"><ele>2173</ele></trkpt>
      <trkpt lat="47.168417" lon="10.409647"><ele>2171</ele></trkpt>
      <trkpt lat="47.168342" lon="10.409564"><ele>2168</ele></trkpt>
      <trkpt lat="47.168324" lon="10.409571"><ele>2167</ele></trkpt>
      <trkpt lat="47.168299" lon="10.409702"><ele>2164</ele></trkpt>
      <trkpt lat="47.168303" lon="10.409763"><ele>2164</ele></trkpt>
      <trkpt lat="47.168243" lon="10.409916"><ele>2158</ele></trkpt>
      <trkpt lat="47.168249" lon="10.410029"><ele>2158</ele></trkpt>
      <trkpt lat="47.168094" lon="10.410311"><ele>2150</ele></trkpt>
      <trkpt lat="47.167908" lon="10.410322"><ele>2140</ele></trkpt>
      <trkpt lat="47.167836" lon="10.410524"><ele>2137</ele></trkpt>
      <trkpt lat="47.167812" lon="10.410728"><ele>2133</ele></trkpt>
      <trkpt lat="47.167819" lon="10.410802"><ele>2133</ele></trkpt>
      <trkpt lat="47.167729" lon="10.411323"><ele>2125</ele></trkpt>
      <trkpt lat="47.167636" lon="10.411516"><ele>2118</ele></trkpt>
      <trkpt lat="47.167634" lon="10.411773"><ele>2114</ele></trkpt>
      <trkpt lat="47.167621" lon="10.411801"><ele>2112</ele></trkpt>
      <trkpt lat="47.167597" lon="10.411782"><ele>2112</ele></trkpt>
      <trkpt lat="47.167513" lon="10.411742"><ele>2110</ele></trkpt>
      <trkpt lat="47.167473" lon="10.411751"><ele>2108</ele></trkpt>
      <trkpt lat="47.167476" lon="10.411835"><ele>2106</ele></trkpt>
      <trkpt lat="47.167377" lon="10.411834"><ele>2101</ele></trkpt>
      <trkpt lat="47.167324" lon="10.411905"><ele>2098</ele></trkpt>
      <trkpt lat="47.167251" lon="10.411914"><ele>2095</ele></trkpt>
      <trkpt lat="47.167230" lon="10.412039"><ele>2091</ele></trkpt>
      <trkpt lat="47.167143" lon="10.411992"><ele>2088</ele></trkpt>
      <trkpt lat="47.167131" lon="10.412030"><ele>2087</ele></trkpt>
      <trkpt lat="47.167143" lon="10.412114"><ele>2085</ele></trkpt>
      <trkpt lat="47.166988" lon="10.411889"><ele>2082</ele></trkpt>
      <trkpt lat="47.166963" lon="10.412022"><ele>2079</ele></trkpt>
      <trkpt lat="47.166872" lon="10.411864"><ele>2076</ele></trkpt>
      <trkpt lat="47.166809" lon="10.412246"><ele>2067</ele></trkpt>
      <trkpt lat="47.166604" lon="10.411990"><ele>2059</ele></trkpt>
      <trkpt lat="47.166555" lon="10.412092"><ele>2056</ele></trkpt>
      <trkpt lat="47.166490" lon="10.411965"><ele>2053</ele></trkpt>
      <trkpt lat="47.166398" lon="10.412146"><ele>2048</ele></trkpt>
      <trkpt lat="47.166364" lon="10.412109"><ele>2046</ele></trkpt>
      <trkpt lat="47.166316" lon="10.412351"><ele>2039</ele></trkpt>
      <trkpt lat="47.166210" lon="10.412201"><ele>2035</ele></trkpt>
      <trkpt lat="47.166201" lon="10.412360"><ele>2032</ele></trkpt>
      <trkpt lat="47.166189" lon="10.412410"><ele>2031</ele></trkpt>
      <trkpt lat="47.166175" lon="10.412422"><ele>2030</ele></trkpt>
      <trkpt lat="47.166067" lon="10.412171"><ele>2027</ele></trkpt>
      <trkpt lat="47.166021" lon="10.412295"><ele>2023</ele></trkpt>
      <trkpt lat="47.165935" lon="10.412143"><ele>2020</ele></trkpt>
      <trkpt lat="47.165847" lon="10.412488"><ele>2012</ele></trkpt>
      <trkpt lat="47.165698" lon="10.412359"><ele>2006</ele></trkpt>
      <trkpt lat="47.165616" lon="10.412380"><ele>2003</ele></trkpt>
      <trkpt lat="47.165526" lon="10.412436"><ele>1998</ele></trkpt>
      <trkpt lat="47.165535" lon="10.412731"><ele>1992</ele></trkpt>
      <trkpt lat="47.165321" lon="10.412669"><ele>1985</ele></trkpt>
      <trkpt lat="47.165313" lon="10.412787"><ele>1983</ele></trkpt>
      <trkpt lat="47.165193" lon="10.412680"><ele>1978</ele></trkpt>
      <trkpt lat="47.165168" lon="10.412840"><ele>1974</ele></trkpt>
      <trkpt lat="47.165061" lon="10.412715"><ele>1972</ele></trkpt>
      <trkpt lat="47.164985" lon="10.412596"><ele>1968</ele></trkpt>
      <trkpt lat="47.164932" lon="10.412740"><ele>1964</ele></trkpt>
      <trkpt lat="47.164787" lon="10.412571"><ele>1957</ele></trkpt>
      <trkpt lat="47.164783" lon="10.412827"><ele>1954</ele></trkpt>
      <trkpt lat="47.164703" lon="10.413180"><ele>1942</ele></trkpt>
      <trkpt lat="47.164600" lon="10.413063"><ele>1940</ele></trkpt>
      <trkpt lat="47.164503" lon="10.412915"><ele>1936</ele></trkpt>
      <trkpt lat="47.164472" lon="10.412895"><ele>1935</ele></trkpt>
      <trkpt lat="47.164460" lon="10.412864"><ele>1935</ele></trkpt>
      <trkpt lat="47.164410" lon="10.412804"><ele>1933</ele></trkpt>
      <trkpt lat="47.164407" lon="10.412896"><ele>1931</ele></trkpt>
      <trkpt lat="47.164371" lon="10.412866"><ele>1930</ele></trkpt>
      <trkpt lat="47.164252" lon="10.412666"><ele>1925</ele></trkpt>
      <trkpt lat="47.164249" lon="10.412699"><ele>1924</ele></trkpt>
      <trkpt lat="47.164234" lon="10.412719"><ele>1924</ele></trkpt>
      <trkpt lat="47.164214" lon="10.412840"><ele>1922</ele></trkpt>
      <trkpt lat="47.164153" lon="10.412822"><ele>1918</ele></trkpt>
      <trkpt lat="47.164144" lon="10.412769"><ele>1918</ele></trkpt>
      <trkpt lat="47.164127" lon="10.412775"><ele>1917</ele></trkpt>
      <trkpt lat="47.164119" lon="10.412832"><ele>1916</ele></trkpt>
      <trkpt lat="47.164095" lon="10.412876"><ele>1914</ele></trkpt>
      <trkpt lat="47.164085" lon="10.412838"><ele>1914</ele></trkpt>
      <trkpt lat="47.164041" lon="10.412779"><ele>1912</ele></trkpt>
      <trkpt lat="47.164020" lon="10.412727"><ele>1911</ele></trkpt>
      <trkpt lat="47.163984" lon="10.412946"><ele>1906</ele></trkpt>
      <trkpt lat="47.163893" lon="10.412778"><ele>1902</ele></trkpt>
      <trkpt lat="47.163875" lon="10.412786"><ele>1901</ele></trkpt>
      <trkpt lat="47.163864" lon="10.413128"><ele>1895</ele></trkpt>
      <trkpt lat="47.163843" lon="10.413146"><ele>1894</ele></trkpt>
      <trkpt lat="47.163713" lon="10.412929"><ele>1889</ele></trkpt>
      <trkpt lat="47.163658" lon="10.413112"><ele>1883</ele></trkpt>
      <trkpt lat="47.163634" lon="10.413075"><ele>1882</ele></trkpt>
      <trkpt lat="47.163621" lon="10.413207"><ele>1879</ele></trkpt>
      <trkpt lat="47.163519" lon="10.413147"><ele>1873</ele></trkpt>
      <trkpt lat="47.163497" lon="10.413393"><ele>1868</ele></trkpt>
      <trkpt lat="47.163362" lon="10.413189"><ele>1862</ele></trkpt>
      <trkpt lat="47.163334" lon="10.413429"><ele>1858</ele></trkpt>
      <trkpt lat="47.163190" lon="10.413305"><ele>1852</ele></trkpt>
      <trkpt lat="47.163182" lon="10.413379"><ele>1850</ele></trkpt>
      <trkpt lat="47.163110" lon="10.413283"><ele>1846</ele></trkpt>
      <trkpt lat="47.163090" lon="10.413416"><ele>1844</ele></trkpt>
      <trkpt lat="47.163052" lon="10.413393"><ele>1842</ele></trkpt>
      <trkpt lat="47.163048" lon="10.413621"><ele>1838</ele></trkpt>
      <trkpt lat="47.162819" lon="10.413373"><ele>1828</ele></trkpt>
      <trkpt lat="47.162807" lon="10.413520"><ele>1824</ele></trkpt>
      <trkpt lat="47.162648" lon="10.413279"><ele>1818</ele></trkpt>
      <trkpt lat="47.162611" lon="10.413516"><ele>1812</ele></trkpt>
      <trkpt lat="47.162358" lon="10.413173"><ele>1802</ele></trkpt>
      <trkpt lat="47.162245" lon="10.413064"><ele>1798</ele></trkpt>
      <trkpt lat="47.162247" lon="10.413030"><ele>1798</ele></trkpt>
      <trkpt lat="47.162214" lon="10.413042"><ele>1797</ele></trkpt>
      <trkpt lat="47.162200" lon="10.413015"><ele>1795</ele></trkpt>
      <trkpt lat="47.162178" lon="10.413031"><ele>1794</ele></trkpt>
      <trkpt lat="47.162156" lon="10.413026"><ele>1793</ele></trkpt>
      <trkpt lat="47.162160" lon="10.412969"><ele>1790</ele></trkpt>
      <trkpt lat="47.162174" lon="10.412914"><ele>1789</ele></trkpt>
      <trkpt lat="47.162165" lon="10.412898"><ele>1788</ele></trkpt>
      <trkpt lat="47.162114" lon="10.412921"><ele>1786</ele></trkpt>
      <trkpt lat="47.162093" lon="10.412906"><ele>1784</ele></trkpt>
      <trkpt lat="47.162131" lon="10.412833"><ele>1784</ele></trkpt>
      <trkpt lat="47.162130" lon="10.412790"><ele>1782</ele></trkpt>
      <trkpt lat="47.162169" lon="10.412742"><ele>1782</ele></trkpt>
      <trkpt lat="47.162229" lon="10.412617"><ele>1780</ele></trkpt>
      <trkpt lat="47.162244" lon="10.412526"><ele>1777</ele></trkpt>
      <trkpt lat="47.162210" lon="10.412458"><ele>1774</ele></trkpt>
      <trkpt lat="47.162083" lon="10.412449"><ele>1768</ele></trkpt>
      <trkpt lat="47.162098" lon="10.412393"><ele>1767</ele></trkpt>
      <trkpt lat="47.162014" lon="10.412388"><ele>1763</ele></trkpt>
      <trkpt lat="47.162006" lon="10.412333"><ele>1762</ele></trkpt>
      <trkpt lat="47.161976" lon="10.412332"><ele>1760</ele></trkpt>
      <trkpt lat="47.161965" lon="10.412297"><ele>1759</ele></trkpt>
      <trkpt lat="47.161929" lon="10.412317"><ele>1758</ele></trkpt>
      <trkpt lat="47.161908" lon="10.412351"><ele>1757</ele></trkpt>
      <trkpt lat="47.161890" lon="10.412345"><ele>1756</ele></trkpt>
      <trkpt lat="47.161883" lon="10.412240"><ele>1753</ele></trkpt>
      <trkpt lat="47.161897" lon="10.412152"><ele>1753</ele></trkpt>
      <trkpt lat="47.161876" lon="10.412134"><ele>1752</ele></trkpt>
      <trkpt lat="47.161844" lon="10.412142"><ele>1750</ele></trkpt>
      <trkpt lat="47.161793" lon="10.412180"><ele>1747</ele></trkpt>
      <trkpt lat="47.161786" lon="10.412165"><ele>1747</ele></trkpt>
      <trkpt lat="47.161784" lon="10.412105"><ele>1747</ele></trkpt>
      <trkpt lat="47.161742" lon="10.412145"><ele>1744</ele></trkpt>
      <trkpt lat="47.161699" lon="10.412165"><ele>1742</ele></trkpt>
      <trkpt lat="47.161676" lon="10.412199"><ele>1740</ele></trkpt>
      <trkpt lat="47.161575" lon="10.412189"><ele>1736</ele></trkpt>
      <trkpt lat="47.161580" lon="10.412151"><ele>1736</ele></trkpt>
      <trkpt lat="47.161504" lon="10.412070"><ele>1732</ele></trkpt>
      <trkpt lat="47.161392" lon="10.412110"><ele>1726</ele></trkpt>
      <trkpt lat="47.161336" lon="10.412094"><ele>1723</ele></trkpt>
      <trkpt lat="47.161273" lon="10.412146"><ele>1720</ele></trkpt>
      <trkpt lat="47.161238" lon="10.412119"><ele>1718</ele></trkpt>
      <trkpt lat="47.161172" lon="10.411993"><ele>1712</ele></trkpt>
      <trkpt lat="47.161167" lon="10.411923"><ele>1711</ele></trkpt>
      <trkpt lat="47.161245" lon="10.411709"><ele>1712</ele></trkpt>
      <trkpt lat="47.161191" lon="10.411638"><ele>1710</ele></trkpt>
      <trkpt lat="47.161125" lon="10.411627"><ele>1708</ele></trkpt>
      <trkpt lat="47.161053" lon="10.411699"><ele>1704</ele></trkpt>
      <trkpt lat="47.161002" lon="10.411699"><ele>1704</ele></trkpt>
      <trkpt lat="47.160956" lon="10.411741"><ele>1702</ele></trkpt>
      <trkpt lat="47.160845" lon="10.411734"><ele>1700</ele></trkpt>
      <trkpt lat="47.160642" lon="10.411799"><ele>1694</ele></trkpt>
      <trkpt lat="47.160537" lon="10.411923"><ele>1687</ele></trkpt>
      <trkpt lat="47.160564" lon="10.411960"><ele>1686</ele></trkpt>
      <trkpt lat="47.160487" lon="10.412021"><ele>1681</ele></trkpt>
      <trkpt lat="47.160457" lon="10.412030"><ele>1680</ele></trkpt>
      <trkpt lat="47.160429" lon="10.412067"><ele>1677</ele></trkpt>
      <trkpt lat="47.160396" lon="10.412063"><ele>1676</ele></trkpt>
      <trkpt lat="47.160372" lon="10.412095"><ele>1675</ele></trkpt>
      <trkpt lat="47.160367" lon="10.412185"><ele>1671</ele></trkpt>
      <trkpt lat="47.160338" lon="10.412188"><ele>1670</ele></trkpt>
      <trkpt lat="47.160327" lon="10.412218"><ele>1670</ele></trkpt>
      <trkpt lat="47.160172" lon="10.412165"><ele>1668</ele></trkpt>
      <trkpt lat="47.160131" lon="10.412229"><ele>1664</ele></trkpt>
      <trkpt lat="47.160137" lon="10.412257"><ele>1662</ele></trkpt>
      <trkpt lat="47.160118" lon="10.412269"><ele>1662</ele></trkpt>
      <trkpt lat="47.160114" lon="10.412301"><ele>1660</ele></trkpt>
      <trkpt lat="47.160082" lon="10.412292"><ele>1659</ele></trkpt>
      <trkpt lat="47.160065" lon="10.412357"><ele>1656</ele></trkpt>
      <trkpt lat="47.160033" lon="10.412348"><ele>1655</ele></trkpt>
      <trkpt lat="47.159987" lon="10.412349"><ele>1654</ele></trkpt>
      <trkpt lat="47.159984" lon="10.412380"><ele>1653</ele></trkpt>
      <trkpt lat="47.159873" lon="10.412404"><ele>1650</ele></trkpt>
      <trkpt lat="47.159673" lon="10.412578"><ele>1635</ele></trkpt>
      <trkpt lat="47.159595" lon="10.412612"><ele>1632</ele></trkpt>
      <trkpt lat="47.159587" lon="10.412638"><ele>1630</ele></trkpt>
      <trkpt lat="47.159546" lon="10.412642"><ele>1630</ele></trkpt>
      <trkpt lat="47.159535" lon="10.412668"><ele>1628</ele></trkpt>
      <trkpt lat="47.159478" lon="10.412652"><ele>1630</ele></trkpt>
      <trkpt lat="47.159427" lon="10.412670"><ele>1629</ele></trkpt>
      <trkpt lat="47.159380" lon="10.412806"><ele>1622</ele></trkpt>
      <trkpt lat="47.159185" lon="10.412992"><ele>1615</ele></trkpt>
      <trkpt lat="47.159142" lon="10.412989"><ele>1615</ele></trkpt>
      <trkpt lat="47.159116" lon="10.413022"><ele>1613</ele></trkpt>
      <trkpt lat="47.158863" lon="10.413168"><ele>1604</ele></trkpt>
      <trkpt lat="47.158492" lon="10.413077"><ele>1596</ele></trkpt>
      <trkpt lat="47.158364" lon="10.413084"><ele>1592</ele></trkpt>
      <trkpt lat="47.158222" lon="10.412978"><ele>1588</ele></trkpt>
      <trkpt lat="47.158058" lon="10.412806"><ele>1582</ele></trkpt>
      <trkpt lat="47.157854" lon="10.412743"><ele>1573</ele></trkpt>
      <trkpt lat="47.157757" lon="10.412613"><ele>1576</ele></trkpt>
      <trkpt lat="47.157382" lon="10.412504"><ele>1570</ele></trkpt>
      <trkpt lat="47.157295" lon="10.412588"><ele>1561</ele></trkpt>
      <trkpt lat="47.157229" lon="10.412589"><ele>1560</ele></trkpt>
      <trkpt lat="47.157006" lon="10.412435"><ele>1556</ele></trkpt>
      <trkpt lat="47.156932" lon="10.412357"><ele>1554</ele></trkpt>
      <trkpt lat="47.156923" lon="10.412314"><ele>1556</ele></trkpt>
      <trkpt lat="47.156866" lon="10.412256"><ele>1556</ele></trkpt>
      <trkpt lat="47.156764" lon="10.412303"><ele>1549</ele></trkpt>
      <trkpt lat="47.156607" lon="10.412247"><ele>1545</ele></trkpt>
      <trkpt lat="47.156575" lon="10.412285"><ele>1542</ele></trkpt>
      <trkpt lat="47.156449" lon="10.412281"><ele>1538</ele></trkpt>
      <trkpt lat="47.156432" lon="10.412220"><ele>1539</ele></trkpt>
      <trkpt lat="47.156363" lon="10.412206"><ele>1535</ele></trkpt>
      <trkpt lat="47.156299" lon="10.412160"><ele>1530</ele></trkpt>
      <trkpt lat="47.156261" lon="10.412149"><ele>1528</ele></trkpt>
      <trkpt lat="47.156188" lon="10.412079"><ele>1522</ele></trkpt>
      <trkpt lat="47.156170" lon="10.411938"><ele>1522</ele></trkpt>
      <trkpt lat="47.156106" lon="10.411717"><ele>1516</ele></trkpt>
      <trkpt lat="47.155995" lon="10.411452"><ele>1506</ele></trkpt>
      <trkpt lat="47.155924" lon="10.411409"><ele>1500</ele></trkpt>
      <trkpt lat="47.155875" lon="10.411288"><ele>1496</ele></trkpt>
      <trkpt lat="47.155745" lon="10.411322"><ele>1484</ele></trkpt>
      <trkpt lat="47.155595" lon="10.410954"><ele>1470</ele></trkpt>
      <trkpt lat="47.155578" lon="10.410786"><ele>1466</ele></trkpt>
      <trkpt lat="47.155678" lon="10.410668"><ele>1469</ele></trkpt>
      <trkpt lat="47.155662" lon="10.410536"><ele>1463</ele></trkpt>
      <trkpt lat="47.155566" lon="10.410434"><ele>1451</ele></trkpt>
      <trkpt lat="47.155472" lon="10.410187"><ele>1447</ele></trkpt>
      <trkpt lat="47.155392" lon="10.410214"><ele>1435</ele></trkpt>
      <trkpt lat="47.155276" lon="10.410123"><ele>1424</ele></trkpt>
      <trkpt lat="47.155173" lon="10.409969"><ele>1418</ele></trkpt>
      <trkpt lat="47.155028" lon="10.409703"><ele>1404</ele></trkpt>
      <trkpt lat="47.154947" lon="10.409509"><ele>1400</ele></trkpt>
      <trkpt lat="47.154881" lon="10.409454"><ele>1396</ele></trkpt>
      <trkpt lat="47.154758" lon="10.409472"><ele>1387</ele></trkpt>
      <trkpt lat="47.154593" lon="10.409271"><ele>1382</ele></trkpt>
      <trkpt lat="47.154468" lon="10.409227"><ele>1376</ele></trkpt>
      <trkpt lat="47.154210" lon="10.409051"><ele>1363</ele></trkpt>
      <trkpt lat="47.153966" lon="10.408704"><ele>1350</ele></trkpt>
      <trkpt lat="47.153891" lon="10.408835"><ele>1344</ele></trkpt>
      <trkpt lat="47.153710" lon="10.408791"><ele>1331</ele></trkpt>
      <trkpt lat="47.153595" lon="10.408658"><ele>1324</ele></trkpt>
      <trkpt lat="47.153338" lon="10.409074"><ele>1302</ele></trkpt>
      <trkpt lat="47.153136" lon="10.409345"><ele>1286</ele></trkpt>
      <trkpt lat="47.152862" lon="10.409618"><ele>1265</ele></trkpt>
      <trkpt lat="47.152991" lon="10.409961"><ele>1258</ele></trkpt>
      <trkpt lat="47.152951" lon="10.410018"><ele>1253</ele></trkpt>
      <trkpt lat="47.152816" lon="10.409929"><ele>1250</ele></trkpt>
      <trkpt lat="47.152610" lon="10.409654"><ele>1253</ele></trkpt>
      <trkpt lat="47.152353" lon="10.409554"><ele>1242</ele></trkpt>
      <trkpt lat="47.151992" lon="10.409671"><ele>1224</ele></trkpt>
      <trkpt lat="47.151933" lon="10.409705"><ele>1221</ele></trkpt>
      <trkpt lat="47.151804" lon="10.409822"><ele>1214</ele></trkpt>
      <trkpt lat="47.151773" lon="10.409883"><ele>1212</ele></trkpt>
      <trkpt lat="47.151739" lon="10.410197"><ele>1208</ele></trkpt>
      <trkpt lat="47.151688" lon="10.410452"><ele>1203</ele></trkpt>
      <trkpt lat="47.151694" lon="10.410627"><ele>1201</ele></trkpt>
      <trkpt lat="47.151687" lon="10.410697"><ele>1200</ele></trkpt>
      <trkpt lat="47.151667" lon="10.410737"><ele>1198</ele></trkpt>
      <trkpt lat="47.151647" lon="10.410745"><ele>1198</ele></trkpt>
      <trkpt lat="47.151613" lon="10.410741"><ele>1197</ele></trkpt>
      <trkpt lat="47.151570" lon="10.410776"><ele>1196</ele></trkpt>
      <trkpt lat="47.151471" lon="10.410717"><ele>1194</ele></trkpt>
      <trkpt lat="47.151370" lon="10.410616"><ele>1192</ele></trkpt>
      <trkpt lat="47.151310" lon="10.410477"><ele>1192</ele></trkpt>
      <trkpt lat="47.151235" lon="10.410327"><ele>1190</ele></trkpt>
      <trkpt lat="47.151234" lon="10.410380"><ele>1190</ele></trkpt>
      <trkpt lat="47.151219" lon="10.410426"><ele>1190</ele></trkpt>
      <trkpt lat="47.151102" lon="10.410230"><ele>1188</ele></trkpt>
      <trkpt lat="47.150970" lon="10.410054"><ele>1185</ele></trkpt>
      <trkpt lat="47.150834" lon="10.409908"><ele>1182</ele></trkpt>
      <trkpt lat="47.150622" lon="10.409759"><ele>1180</ele></trkpt>
      <trkpt lat="47.150404" lon="10.409633"><ele>1178</ele></trkpt>
      <trkpt lat="47.149998" lon="10.409474"><ele>1172</ele></trkpt>
      <trkpt lat="47.149585" lon="10.409375"><ele>1166</ele></trkpt>
      <trkpt lat="47.148422" lon="10.409339"><ele>1154</ele></trkpt>
      <trkpt lat="47.148417" lon="10.409259"><ele>1154</ele></trkpt>
      <trkpt lat="47.148434" lon="10.408891"><ele>1155</ele></trkpt>
      <trkpt lat="47.148482" lon="10.408486"><ele>1155</ele></trkpt>
      <trkpt lat="47.148500" lon="10.408401"><ele>1155</ele></trkpt>
  </trkseg></trk>
  <trk><name>Ansbacher Hütte naar Schnann (Schnanner Klamm)</name><trkseg>
      <trkpt lat="47.168314" lon="10.403299"><ele>2374</ele></trkpt>
      <trkpt lat="47.168224" lon="10.403309"><ele>2373</ele></trkpt>
      <trkpt lat="47.168200" lon="10.403293"><ele>2372</ele></trkpt>
      <trkpt lat="47.168149" lon="10.403257"><ele>2372</ele></trkpt>
      <trkpt lat="47.168075" lon="10.403142"><ele>2371</ele></trkpt>
      <trkpt lat="47.167779" lon="10.402869"><ele>2362</ele></trkpt>
      <trkpt lat="47.167729" lon="10.402772"><ele>2360</ele></trkpt>
      <trkpt lat="47.167665" lon="10.402786"><ele>2358</ele></trkpt>
      <trkpt lat="47.167613" lon="10.402808"><ele>2357</ele></trkpt>
      <trkpt lat="47.167580" lon="10.402745"><ele>2356</ele></trkpt>
      <trkpt lat="47.167533" lon="10.402585"><ele>2354</ele></trkpt>
      <trkpt lat="47.167495" lon="10.402499"><ele>2354</ele></trkpt>
      <trkpt lat="47.167449" lon="10.402330"><ele>2350</ele></trkpt>
      <trkpt lat="47.167312" lon="10.402028"><ele>2342</ele></trkpt>
      <trkpt lat="47.167329" lon="10.401753"><ele>2338</ele></trkpt>
      <trkpt lat="47.167355" lon="10.401738"><ele>2339</ele></trkpt>
      <trkpt lat="47.167355" lon="10.401711"><ele>2338</ele></trkpt>
      <trkpt lat="47.167332" lon="10.401701"><ele>2337</ele></trkpt>
      <trkpt lat="47.167244" lon="10.401722"><ele>2334</ele></trkpt>
      <trkpt lat="47.167291" lon="10.401539"><ele>2331</ele></trkpt>
      <trkpt lat="47.167238" lon="10.401546"><ele>2330</ele></trkpt>
      <trkpt lat="47.167184" lon="10.401582"><ele>2328</ele></trkpt>
      <trkpt lat="47.167130" lon="10.401658"><ele>2326</ele></trkpt>
      <trkpt lat="47.167078" lon="10.401792"><ele>2323</ele></trkpt>
      <trkpt lat="47.167045" lon="10.401656"><ele>2320</ele></trkpt>
      <trkpt lat="47.167018" lon="10.401479"><ele>2315</ele></trkpt>
      <trkpt lat="47.167045" lon="10.401402"><ele>2315</ele></trkpt>
      <trkpt lat="47.167010" lon="10.401221"><ele>2307</ele></trkpt>
      <trkpt lat="47.167005" lon="10.401166"><ele>2305</ele></trkpt>
      <trkpt lat="47.167032" lon="10.401061"><ele>2304</ele></trkpt>
      <trkpt lat="47.167027" lon="10.400963"><ele>2301</ele></trkpt>
      <trkpt lat="47.166972" lon="10.400978"><ele>2298</ele></trkpt>
      <trkpt lat="47.166947" lon="10.401039"><ele>2298</ele></trkpt>
      <trkpt lat="47.166898" lon="10.401061"><ele>2296</ele></trkpt>
      <trkpt lat="47.166881" lon="10.401140"><ele>2296</ele></trkpt>
      <trkpt lat="47.166826" lon="10.401163"><ele>2293</ele></trkpt>
      <trkpt lat="47.166752" lon="10.401362"><ele>2293</ele></trkpt>
      <trkpt lat="47.166675" lon="10.401436"><ele>2288</ele></trkpt>
      <trkpt lat="47.166667" lon="10.401521"><ele>2288</ele></trkpt>
      <trkpt lat="47.166595" lon="10.401584"><ele>2285</ele></trkpt>
      <trkpt lat="47.166482" lon="10.401644"><ele>2282</ele></trkpt>
      <trkpt lat="47.166385" lon="10.401724"><ele>2279</ele></trkpt>
      <trkpt lat="47.166256" lon="10.401816"><ele>2274</ele></trkpt>
      <trkpt lat="47.166248" lon="10.401636"><ele>2272</ele></trkpt>
      <trkpt lat="47.166161" lon="10.401716"><ele>2268</ele></trkpt>
      <trkpt lat="47.166083" lon="10.401837"><ele>2264</ele></trkpt>
      <trkpt lat="47.166064" lon="10.401773"><ele>2264</ele></trkpt>
      <trkpt lat="47.165964" lon="10.401771"><ele>2258</ele></trkpt>
      <trkpt lat="47.165902" lon="10.401564"><ele>2255</ele></trkpt>
      <trkpt lat="47.165840" lon="10.401571"><ele>2252</ele></trkpt>
      <trkpt lat="47.165789" lon="10.401615"><ele>2251</ele></trkpt>
      <trkpt lat="47.165747" lon="10.401673"><ele>2250</ele></trkpt>
      <trkpt lat="47.165738" lon="10.401733"><ele>2248</ele></trkpt>
      <trkpt lat="47.165708" lon="10.401735"><ele>2247</ele></trkpt>
      <trkpt lat="47.165608" lon="10.401598"><ele>2244</ele></trkpt>
      <trkpt lat="47.165554" lon="10.401575"><ele>2241</ele></trkpt>
      <trkpt lat="47.165485" lon="10.401574"><ele>2239</ele></trkpt>
      <trkpt lat="47.165428" lon="10.401607"><ele>2237</ele></trkpt>
      <trkpt lat="47.165358" lon="10.401589"><ele>2234</ele></trkpt>
      <trkpt lat="47.165325" lon="10.401492"><ele>2233</ele></trkpt>
      <trkpt lat="47.165293" lon="10.401472"><ele>2232</ele></trkpt>
      <trkpt lat="47.165282" lon="10.401424"><ele>2232</ele></trkpt>
      <trkpt lat="47.165245" lon="10.401412"><ele>2230</ele></trkpt>
      <trkpt lat="47.165220" lon="10.401350"><ele>2229</ele></trkpt>
      <trkpt lat="47.165186" lon="10.401326"><ele>2228</ele></trkpt>
      <trkpt lat="47.165164" lon="10.401284"><ele>2226</ele></trkpt>
      <trkpt lat="47.165164" lon="10.401235"><ele>2226</ele></trkpt>
      <trkpt lat="47.165138" lon="10.401223"><ele>2224</ele></trkpt>
      <trkpt lat="47.165065" lon="10.401267"><ele>2222</ele></trkpt>
      <trkpt lat="47.165050" lon="10.401154"><ele>2220</ele></trkpt>
      <trkpt lat="47.165077" lon="10.400962"><ele>2217</ele></trkpt>
      <trkpt lat="47.165072" lon="10.400799"><ele>2214</ele></trkpt>
      <trkpt lat="47.165019" lon="10.400725"><ele>2211</ele></trkpt>
      <trkpt lat="47.165033" lon="10.400655"><ele>2209</ele></trkpt>
      <trkpt lat="47.165117" lon="10.400506"><ele>2207</ele></trkpt>
      <trkpt lat="47.165127" lon="10.400428"><ele>2204</ele></trkpt>
      <trkpt lat="47.165173" lon="10.400285"><ele>2200</ele></trkpt>
      <trkpt lat="47.165151" lon="10.400248"><ele>2198</ele></trkpt>
      <trkpt lat="47.165078" lon="10.400223"><ele>2195</ele></trkpt>
      <trkpt lat="47.165067" lon="10.400197"><ele>2194</ele></trkpt>
      <trkpt lat="47.165084" lon="10.400174"><ele>2194</ele></trkpt>
      <trkpt lat="47.165095" lon="10.400145"><ele>2192</ele></trkpt>
      <trkpt lat="47.165078" lon="10.400123"><ele>2191</ele></trkpt>
      <trkpt lat="47.165075" lon="10.400104"><ele>2190</ele></trkpt>
      <trkpt lat="47.165130" lon="10.400052"><ele>2190</ele></trkpt>
      <trkpt lat="47.165122" lon="10.400024"><ele>2188</ele></trkpt>
      <trkpt lat="47.165103" lon="10.400010"><ele>2187</ele></trkpt>
      <trkpt lat="47.165064" lon="10.400014"><ele>2186</ele></trkpt>
      <trkpt lat="47.165053" lon="10.399976"><ele>2185</ele></trkpt>
      <trkpt lat="47.165080" lon="10.399937"><ele>2184</ele></trkpt>
      <trkpt lat="47.165077" lon="10.399906"><ele>2183</ele></trkpt>
      <trkpt lat="47.164985" lon="10.399900"><ele>2180</ele></trkpt>
      <trkpt lat="47.164913" lon="10.399821"><ele>2175</ele></trkpt>
      <trkpt lat="47.164901" lon="10.399784"><ele>2174</ele></trkpt>
      <trkpt lat="47.164943" lon="10.399699"><ele>2173</ele></trkpt>
      <trkpt lat="47.164917" lon="10.399660"><ele>2171</ele></trkpt>
      <trkpt lat="47.164923" lon="10.399624"><ele>2170</ele></trkpt>
      <trkpt lat="47.164857" lon="10.399622"><ele>2168</ele></trkpt>
      <trkpt lat="47.164841" lon="10.399588"><ele>2166</ele></trkpt>
      <trkpt lat="47.164850" lon="10.399532"><ele>2166</ele></trkpt>
      <trkpt lat="47.164845" lon="10.399497"><ele>2164</ele></trkpt>
      <trkpt lat="47.164773" lon="10.399458"><ele>2162</ele></trkpt>
      <trkpt lat="47.164762" lon="10.399401"><ele>2161</ele></trkpt>
      <trkpt lat="47.164727" lon="10.399382"><ele>2160</ele></trkpt>
      <trkpt lat="47.164675" lon="10.399197"><ele>2157</ele></trkpt>
      <trkpt lat="47.164683" lon="10.398885"><ele>2150</ele></trkpt>
      <trkpt lat="47.164668" lon="10.398855"><ele>2149</ele></trkpt>
      <trkpt lat="47.164663" lon="10.398823"><ele>2148</ele></trkpt>
      <trkpt lat="47.164688" lon="10.398793"><ele>2148</ele></trkpt>
      <trkpt lat="47.164699" lon="10.398752"><ele>2147</ele></trkpt>
      <trkpt lat="47.164688" lon="10.398659"><ele>2144</ele></trkpt>
      <trkpt lat="47.164744" lon="10.398516"><ele>2142</ele></trkpt>
      <trkpt lat="47.164755" lon="10.398382"><ele>2139</ele></trkpt>
      <trkpt lat="47.164742" lon="10.398191"><ele>2134</ele></trkpt>
      <trkpt lat="47.164721" lon="10.398066"><ele>2131</ele></trkpt>
      <trkpt lat="47.164713" lon="10.397901"><ele>2128</ele></trkpt>
      <trkpt lat="47.164675" lon="10.397700"><ele>2123</ele></trkpt>
      <trkpt lat="47.164642" lon="10.397059"><ele>2109</ele></trkpt>
      <trkpt lat="47.164679" lon="10.396904"><ele>2105</ele></trkpt>
      <trkpt lat="47.164679" lon="10.396769"><ele>2102</ele></trkpt>
      <trkpt lat="47.164689" lon="10.396716"><ele>2100</ele></trkpt>
      <trkpt lat="47.164711" lon="10.396712"><ele>2100</ele></trkpt>
      <trkpt lat="47.164739" lon="10.396679"><ele>2099</ele></trkpt>
      <trkpt lat="47.164749" lon="10.396609"><ele>2097</ele></trkpt>
      <trkpt lat="47.164769" lon="10.396606"><ele>2096</ele></trkpt>
      <trkpt lat="47.164778" lon="10.396585"><ele>2096</ele></trkpt>
      <trkpt lat="47.164766" lon="10.396559"><ele>2095</ele></trkpt>
      <trkpt lat="47.164732" lon="10.396540"><ele>2095</ele></trkpt>
      <trkpt lat="47.164725" lon="10.396518"><ele>2094</ele></trkpt>
      <trkpt lat="47.164781" lon="10.396445"><ele>2091</ele></trkpt>
      <trkpt lat="47.164801" lon="10.396406"><ele>2090</ele></trkpt>
      <trkpt lat="47.164828" lon="10.396403"><ele>2089</ele></trkpt>
      <trkpt lat="47.164864" lon="10.396422"><ele>2090</ele></trkpt>
      <trkpt lat="47.164883" lon="10.396419"><ele>2089</ele></trkpt>
      <trkpt lat="47.164885" lon="10.396396"><ele>2088</ele></trkpt>
      <trkpt lat="47.164870" lon="10.396377"><ele>2088</ele></trkpt>
      <trkpt lat="47.164864" lon="10.396340"><ele>2086</ele></trkpt>
      <trkpt lat="47.164807" lon="10.396250"><ele>2084</ele></trkpt>
      <trkpt lat="47.164804" lon="10.396230"><ele>2083</ele></trkpt>
      <trkpt lat="47.164838" lon="10.396209"><ele>2082</ele></trkpt>
      <trkpt lat="47.164848" lon="10.396178"><ele>2081</ele></trkpt>
      <trkpt lat="47.164977" lon="10.396167"><ele>2080</ele></trkpt>
      <trkpt lat="47.164961" lon="10.396131"><ele>2079</ele></trkpt>
      <trkpt lat="47.164930" lon="10.396116"><ele>2078</ele></trkpt>
      <trkpt lat="47.164914" lon="10.396089"><ele>2078</ele></trkpt>
      <trkpt lat="47.164912" lon="10.396066"><ele>2076</ele></trkpt>
      <trkpt lat="47.164833" lon="10.395970"><ele>2074</ele></trkpt>
      <trkpt lat="47.164824" lon="10.395942"><ele>2073</ele></trkpt>
      <trkpt lat="47.164840" lon="10.395926"><ele>2072</ele></trkpt>
      <trkpt lat="47.164964" lon="10.395917"><ele>2071</ele></trkpt>
      <trkpt lat="47.164962" lon="10.395885"><ele>2070</ele></trkpt>
      <trkpt lat="47.164905" lon="10.395820"><ele>2068</ele></trkpt>
      <trkpt lat="47.164832" lon="10.395765"><ele>2067</ele></trkpt>
      <trkpt lat="47.164842" lon="10.395735"><ele>2066</ele></trkpt>
      <trkpt lat="47.164858" lon="10.395734"><ele>2066</ele></trkpt>
      <trkpt lat="47.164921" lon="10.395695"><ele>2064</ele></trkpt>
      <trkpt lat="47.165001" lon="10.395671"><ele>2062</ele></trkpt>
      <trkpt lat="47.164998" lon="10.395631"><ele>2061</ele></trkpt>
      <trkpt lat="47.164939" lon="10.395542"><ele>2059</ele></trkpt>
      <trkpt lat="47.164999" lon="10.395504"><ele>2057</ele></trkpt>
      <trkpt lat="47.164991" lon="10.395470"><ele>2056</ele></trkpt>
      <trkpt lat="47.164947" lon="10.395433"><ele>2055</ele></trkpt>
      <trkpt lat="47.164945" lon="10.395411"><ele>2054</ele></trkpt>
      <trkpt lat="47.164988" lon="10.395365"><ele>2053</ele></trkpt>
      <trkpt lat="47.164954" lon="10.395313"><ele>2051</ele></trkpt>
      <trkpt lat="47.164914" lon="10.395195"><ele>2047</ele></trkpt>
      <trkpt lat="47.164890" lon="10.395171"><ele>2046</ele></trkpt>
      <trkpt lat="47.164755" lon="10.395141"><ele>2045</ele></trkpt>
      <trkpt lat="47.164710" lon="10.395092"><ele>2043</ele></trkpt>
      <trkpt lat="47.164676" lon="10.395098"><ele>2044</ele></trkpt>
      <trkpt lat="47.164633" lon="10.395079"><ele>2043</ele></trkpt>
      <trkpt lat="47.164571" lon="10.395079"><ele>2043</ele></trkpt>
      <trkpt lat="47.164575" lon="10.394979"><ele>2039</ele></trkpt>
      <trkpt lat="47.164588" lon="10.394926"><ele>2037</ele></trkpt>
      <trkpt lat="47.164636" lon="10.394879"><ele>2036</ele></trkpt>
      <trkpt lat="47.164705" lon="10.394730"><ele>2032</ele></trkpt>
      <trkpt lat="47.164722" lon="10.394638"><ele>2030</ele></trkpt>
      <trkpt lat="47.164739" lon="10.394609"><ele>2029</ele></trkpt>
      <trkpt lat="47.164723" lon="10.394591"><ele>2028</ele></trkpt>
      <trkpt lat="47.164692" lon="10.394602"><ele>2028</ele></trkpt>
      <trkpt lat="47.164664" lon="10.394556"><ele>2027</ele></trkpt>
      <trkpt lat="47.164649" lon="10.394501"><ele>2025</ele></trkpt>
      <trkpt lat="47.164671" lon="10.394421"><ele>2023</ele></trkpt>
      <trkpt lat="47.164665" lon="10.394388"><ele>2022</ele></trkpt>
      <trkpt lat="47.164649" lon="10.394380"><ele>2022</ele></trkpt>
      <trkpt lat="47.164635" lon="10.394321"><ele>2020</ele></trkpt>
      <trkpt lat="47.164653" lon="10.394277"><ele>2019</ele></trkpt>
      <trkpt lat="47.164623" lon="10.394172"><ele>2016</ele></trkpt>
      <trkpt lat="47.164635" lon="10.394043"><ele>2012</ele></trkpt>
      <trkpt lat="47.164569" lon="10.393960"><ele>2010</ele></trkpt>
      <trkpt lat="47.164542" lon="10.393906"><ele>2008</ele></trkpt>
      <trkpt lat="47.164585" lon="10.393838"><ele>2006</ele></trkpt>
      <trkpt lat="47.164603" lon="10.393774"><ele>2004</ele></trkpt>
      <trkpt lat="47.164569" lon="10.393720"><ele>2003</ele></trkpt>
      <trkpt lat="47.164526" lon="10.393681"><ele>2002</ele></trkpt>
      <trkpt lat="47.164514" lon="10.393642"><ele>2001</ele></trkpt>
      <trkpt lat="47.164490" lon="10.393622"><ele>2001</ele></trkpt>
      <trkpt lat="47.164469" lon="10.393561"><ele>2000</ele></trkpt>
      <trkpt lat="47.164480" lon="10.393551"><ele>1999</ele></trkpt>
      <trkpt lat="47.164474" lon="10.393498"><ele>1998</ele></trkpt>
      <trkpt lat="47.164440" lon="10.393481"><ele>1998</ele></trkpt>
      <trkpt lat="47.164416" lon="10.393406"><ele>1995</ele></trkpt>
      <trkpt lat="47.164438" lon="10.393331"><ele>1994</ele></trkpt>
      <trkpt lat="47.164437" lon="10.393262"><ele>1992</ele></trkpt>
      <trkpt lat="47.164418" lon="10.393184"><ele>1990</ele></trkpt>
      <trkpt lat="47.164381" lon="10.393093"><ele>1986</ele></trkpt>
      <trkpt lat="47.164383" lon="10.393009"><ele>1984</ele></trkpt>
      <trkpt lat="47.164365" lon="10.392941"><ele>1983</ele></trkpt>
      <trkpt lat="47.164361" lon="10.392881"><ele>1982</ele></trkpt>
      <trkpt lat="47.164348" lon="10.392847"><ele>1981</ele></trkpt>
      <trkpt lat="47.164345" lon="10.392805"><ele>1980</ele></trkpt>
      <trkpt lat="47.164328" lon="10.392767"><ele>1980</ele></trkpt>
      <trkpt lat="47.164313" lon="10.392641"><ele>1978</ele></trkpt>
      <trkpt lat="47.164240" lon="10.392607"><ele>1978</ele></trkpt>
      <trkpt lat="47.164195" lon="10.392557"><ele>1979</ele></trkpt>
      <trkpt lat="47.164161" lon="10.392401"><ele>1977</ele></trkpt>
      <trkpt lat="47.164153" lon="10.392122"><ele>1973</ele></trkpt>
      <trkpt lat="47.164095" lon="10.391961"><ele>1966</ele></trkpt>
      <trkpt lat="47.164097" lon="10.391857"><ele>1964</ele></trkpt>
      <trkpt lat="47.164044" lon="10.391725"><ele>1958</ele></trkpt>
      <trkpt lat="47.163956" lon="10.391733"><ele>1956</ele></trkpt>
      <trkpt lat="47.163900" lon="10.391618"><ele>1954</ele></trkpt>
      <trkpt lat="47.163934" lon="10.391473"><ele>1950</ele></trkpt>
      <trkpt lat="47.163876" lon="10.391425"><ele>1947</ele></trkpt>
      <trkpt lat="47.163767" lon="10.391401"><ele>1939</ele></trkpt>
      <trkpt lat="47.163688" lon="10.391235"><ele>1931</ele></trkpt>
      <trkpt lat="47.163668" lon="10.391159"><ele>1930</ele></trkpt>
      <trkpt lat="47.163559" lon="10.391159"><ele>1923</ele></trkpt>
      <trkpt lat="47.163564" lon="10.391106"><ele>1924</ele></trkpt>
      <trkpt lat="47.163499" lon="10.391098"><ele>1918</ele></trkpt>
      <trkpt lat="47.163499" lon="10.390948"><ele>1914</ele></trkpt>
      <trkpt lat="47.163540" lon="10.390830"><ele>1912</ele></trkpt>
      <trkpt lat="47.163431" lon="10.390789"><ele>1904</ele></trkpt>
      <trkpt lat="47.163238" lon="10.390784"><ele>1894</ele></trkpt>
      <trkpt lat="47.162948" lon="10.390878"><ele>1875</ele></trkpt>
      <trkpt lat="47.162877" lon="10.390744"><ele>1869</ele></trkpt>
      <trkpt lat="47.162942" lon="10.390500"><ele>1865</ele></trkpt>
      <trkpt lat="47.162635" lon="10.390328"><ele>1844</ele></trkpt>
      <trkpt lat="47.162565" lon="10.390274"><ele>1842</ele></trkpt>
      <trkpt lat="47.162502" lon="10.390188"><ele>1839</ele></trkpt>
      <trkpt lat="47.162504" lon="10.390115"><ele>1836</ele></trkpt>
      <trkpt lat="47.162401" lon="10.389838"><ele>1831</ele></trkpt>
      <trkpt lat="47.162335" lon="10.389702"><ele>1828</ele></trkpt>
      <trkpt lat="47.162250" lon="10.389602"><ele>1828</ele></trkpt>
      <trkpt lat="47.162176" lon="10.389539"><ele>1829</ele></trkpt>
      <trkpt lat="47.162098" lon="10.389405"><ele>1830</ele></trkpt>
      <trkpt lat="47.162092" lon="10.389174"><ele>1820</ele></trkpt>
      <trkpt lat="47.162047" lon="10.388756"><ele>1810</ele></trkpt>
      <trkpt lat="47.161959" lon="10.388970"><ele>1823</ele></trkpt>
      <trkpt lat="47.161828" lon="10.389016"><ele>1820</ele></trkpt>
      <trkpt lat="47.161751" lon="10.389026"><ele>1818</ele></trkpt>
      <trkpt lat="47.161763" lon="10.388832"><ele>1809</ele></trkpt>
      <trkpt lat="47.161871" lon="10.388561"><ele>1802</ele></trkpt>
      <trkpt lat="47.161768" lon="10.388572"><ele>1797</ele></trkpt>
      <trkpt lat="47.161840" lon="10.388379"><ele>1792</ele></trkpt>
      <trkpt lat="47.161864" lon="10.388280"><ele>1790</ele></trkpt>
      <trkpt lat="47.161937" lon="10.388093"><ele>1784</ele></trkpt>
      <trkpt lat="47.161864" lon="10.388134"><ele>1783</ele></trkpt>
      <trkpt lat="47.161618" lon="10.388528"><ele>1790</ele></trkpt>
      <trkpt lat="47.161545" lon="10.388544"><ele>1790</ele></trkpt>
      <trkpt lat="47.161473" lon="10.388485"><ele>1786</ele></trkpt>
      <trkpt lat="47.161408" lon="10.388368"><ele>1779</ele></trkpt>
      <trkpt lat="47.161282" lon="10.388183"><ele>1771</ele></trkpt>
      <trkpt lat="47.161481" lon="10.388247"><ele>1774</ele></trkpt>
      <trkpt lat="47.161582" lon="10.388108"><ele>1770</ele></trkpt>
      <trkpt lat="47.161610" lon="10.388023"><ele>1767</ele></trkpt>
      <trkpt lat="47.161506" lon="10.388107"><ele>1768</ele></trkpt>
      <trkpt lat="47.161404" lon="10.388090"><ele>1764</ele></trkpt>
      <trkpt lat="47.161294" lon="10.387946"><ele>1759</ele></trkpt>
      <trkpt lat="47.161172" lon="10.387911"><ele>1760</ele></trkpt>
      <trkpt lat="47.161210" lon="10.387740"><ele>1751</ele></trkpt>
      <trkpt lat="47.161119" lon="10.387653"><ele>1748</ele></trkpt>
      <trkpt lat="47.160603" lon="10.387670"><ele>1738</ele></trkpt>
      <trkpt lat="47.160551" lon="10.387670"><ele>1736</ele></trkpt>
      <trkpt lat="47.160524" lon="10.387661"><ele>1736</ele></trkpt>
      <trkpt lat="47.160483" lon="10.387649"><ele>1735</ele></trkpt>
      <trkpt lat="47.160452" lon="10.387612"><ele>1734</ele></trkpt>
      <trkpt lat="47.160384" lon="10.387485"><ele>1733</ele></trkpt>
      <trkpt lat="47.160329" lon="10.387459"><ele>1733</ele></trkpt>
      <trkpt lat="47.160270" lon="10.387409"><ele>1733</ele></trkpt>
      <trkpt lat="47.160094" lon="10.387230"><ele>1732</ele></trkpt>
      <trkpt lat="47.160010" lon="10.387169"><ele>1731</ele></trkpt>
      <trkpt lat="47.159845" lon="10.386921"><ele>1726</ele></trkpt>
      <trkpt lat="47.159771" lon="10.386858"><ele>1725</ele></trkpt>
      <trkpt lat="47.159764" lon="10.386805"><ele>1724</ele></trkpt>
      <trkpt lat="47.159773" lon="10.386675"><ele>1722</ele></trkpt>
      <trkpt lat="47.159760" lon="10.386613"><ele>1722</ele></trkpt>
      <trkpt lat="47.159664" lon="10.386548"><ele>1722</ele></trkpt>
      <trkpt lat="47.159595" lon="10.386545"><ele>1722</ele></trkpt>
      <trkpt lat="47.159469" lon="10.386415"><ele>1722</ele></trkpt>
      <trkpt lat="47.159481" lon="10.386374"><ele>1722</ele></trkpt>
      <trkpt lat="47.159439" lon="10.386265"><ele>1720</ele></trkpt>
      <trkpt lat="47.159462" lon="10.386189"><ele>1720</ele></trkpt>
      <trkpt lat="47.159372" lon="10.386006"><ele>1714</ele></trkpt>
      <trkpt lat="47.159260" lon="10.386005"><ele>1710</ele></trkpt>
      <trkpt lat="47.159297" lon="10.385814"><ele>1709</ele></trkpt>
      <trkpt lat="47.159252" lon="10.385786"><ele>1708</ele></trkpt>
      <trkpt lat="47.159127" lon="10.385854"><ele>1704</ele></trkpt>
      <trkpt lat="47.159106" lon="10.385621"><ele>1700</ele></trkpt>
      <trkpt lat="47.159031" lon="10.385528"><ele>1696</ele></trkpt>
      <trkpt lat="47.158879" lon="10.385308"><ele>1690</ele></trkpt>
      <trkpt lat="47.158828" lon="10.385179"><ele>1688</ele></trkpt>
      <trkpt lat="47.158747" lon="10.385120"><ele>1684</ele></trkpt>
      <trkpt lat="47.158666" lon="10.385245"><ele>1681</ele></trkpt>
      <trkpt lat="47.158565" lon="10.385254"><ele>1678</ele></trkpt>
      <trkpt lat="47.158473" lon="10.384997"><ele>1674</ele></trkpt>
      <trkpt lat="47.158348" lon="10.384947"><ele>1668</ele></trkpt>
      <trkpt lat="47.158341" lon="10.384783"><ele>1666</ele></trkpt>
      <trkpt lat="47.158273" lon="10.384706"><ele>1660</ele></trkpt>
      <trkpt lat="47.158222" lon="10.384727"><ele>1656</ele></trkpt>
      <trkpt lat="47.158159" lon="10.384602"><ele>1650</ele></trkpt>
      <trkpt lat="47.158156" lon="10.384475"><ele>1650</ele></trkpt>
      <trkpt lat="47.158192" lon="10.384450"><ele>1652</ele></trkpt>
      <trkpt lat="47.158242" lon="10.384273"><ele>1650</ele></trkpt>
      <trkpt lat="47.158206" lon="10.384150"><ele>1644</ele></trkpt>
      <trkpt lat="47.158213" lon="10.383972"><ele>1640</ele></trkpt>
      <trkpt lat="47.158117" lon="10.384115"><ele>1638</ele></trkpt>
      <trkpt lat="47.158038" lon="10.383992"><ele>1628</ele></trkpt>
      <trkpt lat="47.158063" lon="10.383955"><ele>1628</ele></trkpt>
      <trkpt lat="47.157912" lon="10.383938"><ele>1618</ele></trkpt>
      <trkpt lat="47.157970" lon="10.383828"><ele>1618</ele></trkpt>
      <trkpt lat="47.157854" lon="10.383912"><ele>1614</ele></trkpt>
      <trkpt lat="47.157859" lon="10.383829"><ele>1612</ele></trkpt>
      <trkpt lat="47.157842" lon="10.383720"><ele>1610</ele></trkpt>
      <trkpt lat="47.157816" lon="10.383686"><ele>1608</ele></trkpt>
      <trkpt lat="47.157783" lon="10.383685"><ele>1606</ele></trkpt>
      <trkpt lat="47.157762" lon="10.383610"><ele>1603</ele></trkpt>
      <trkpt lat="47.157805" lon="10.383441"><ele>1600</ele></trkpt>
      <trkpt lat="47.157843" lon="10.383364"><ele>1598</ele></trkpt>
      <trkpt lat="47.157809" lon="10.383350"><ele>1596</ele></trkpt>
      <trkpt lat="47.157688" lon="10.383428"><ele>1590</ele></trkpt>
      <trkpt lat="47.157688" lon="10.383389"><ele>1589</ele></trkpt>
      <trkpt lat="47.157715" lon="10.383293"><ele>1587</ele></trkpt>
      <trkpt lat="47.157702" lon="10.383198"><ele>1581</ele></trkpt>
      <trkpt lat="47.157519" lon="10.383286"><ele>1575</ele></trkpt>
      <trkpt lat="47.157521" lon="10.383248"><ele>1574</ele></trkpt>
      <trkpt lat="47.157589" lon="10.383209"><ele>1576</ele></trkpt>
      <trkpt lat="47.157560" lon="10.383136"><ele>1572</ele></trkpt>
      <trkpt lat="47.157584" lon="10.383069"><ele>1570</ele></trkpt>
      <trkpt lat="47.157638" lon="10.382993"><ele>1569</ele></trkpt>
      <trkpt lat="47.157703" lon="10.382974"><ele>1570</ele></trkpt>
      <trkpt lat="47.157770" lon="10.383017"><ele>1574</ele></trkpt>
      <trkpt lat="47.157778" lon="10.382977"><ele>1573</ele></trkpt>
      <trkpt lat="47.157741" lon="10.382960"><ele>1571</ele></trkpt>
      <trkpt lat="47.157751" lon="10.382893"><ele>1569</ele></trkpt>
      <trkpt lat="47.157683" lon="10.382858"><ele>1565</ele></trkpt>
      <trkpt lat="47.157725" lon="10.382799"><ele>1565</ele></trkpt>
      <trkpt lat="47.157667" lon="10.382815"><ele>1563</ele></trkpt>
      <trkpt lat="47.157697" lon="10.382711"><ele>1560</ele></trkpt>
      <trkpt lat="47.157643" lon="10.382725"><ele>1557</ele></trkpt>
      <trkpt lat="47.157661" lon="10.382692"><ele>1556</ele></trkpt>
      <trkpt lat="47.157623" lon="10.382692"><ele>1554</ele></trkpt>
      <trkpt lat="47.157625" lon="10.382620"><ele>1550</ele></trkpt>
      <trkpt lat="47.157618" lon="10.382595"><ele>1548</ele></trkpt>
      <trkpt lat="47.157591" lon="10.382478"><ele>1539</ele></trkpt>
      <trkpt lat="47.157571" lon="10.382489"><ele>1538</ele></trkpt>
      <trkpt lat="47.157548" lon="10.382365"><ele>1529</ele></trkpt>
      <trkpt lat="47.157476" lon="10.382373"><ele>1525</ele></trkpt>
      <trkpt lat="47.157447" lon="10.382431"><ele>1525</ele></trkpt>
      <trkpt lat="47.157425" lon="10.382390"><ele>1521</ele></trkpt>
      <trkpt lat="47.157378" lon="10.382411"><ele>1517</ele></trkpt>
      <trkpt lat="47.157353" lon="10.382501"><ele>1518</ele></trkpt>
      <trkpt lat="47.157341" lon="10.382522"><ele>1518</ele></trkpt>
      <trkpt lat="47.157318" lon="10.382558"><ele>1516</ele></trkpt>
      <trkpt lat="47.157205" lon="10.382674"><ele>1507</ele></trkpt>
      <trkpt lat="47.157179" lon="10.382637"><ele>1504</ele></trkpt>
      <trkpt lat="47.157091" lon="10.382735"><ele>1498</ele></trkpt>
      <trkpt lat="47.157054" lon="10.382793"><ele>1496</ele></trkpt>
      <trkpt lat="47.157007" lon="10.382699"><ele>1490</ele></trkpt>
      <trkpt lat="47.156976" lon="10.382792"><ele>1488</ele></trkpt>
      <trkpt lat="47.156936" lon="10.382706"><ele>1484</ele></trkpt>
      <trkpt lat="47.156948" lon="10.382598"><ele>1483</ele></trkpt>
      <trkpt lat="47.156816" lon="10.382672"><ele>1471</ele></trkpt>
      <trkpt lat="47.156797" lon="10.382524"><ele>1469</ele></trkpt>
      <trkpt lat="47.156792" lon="10.382408"><ele>1466</ele></trkpt>
      <trkpt lat="47.156811" lon="10.382334"><ele>1466</ele></trkpt>
      <trkpt lat="47.156769" lon="10.382384"><ele>1464</ele></trkpt>
      <trkpt lat="47.156755" lon="10.382350"><ele>1462</ele></trkpt>
      <trkpt lat="47.156708" lon="10.382415"><ele>1459</ele></trkpt>
      <trkpt lat="47.156676" lon="10.382417"><ele>1456</ele></trkpt>
      <trkpt lat="47.156683" lon="10.382319"><ele>1455</ele></trkpt>
      <trkpt lat="47.156564" lon="10.382375"><ele>1447</ele></trkpt>
      <trkpt lat="47.156561" lon="10.382302"><ele>1446</ele></trkpt>
      <trkpt lat="47.156603" lon="10.382225"><ele>1447</ele></trkpt>
      <trkpt lat="47.156545" lon="10.382238"><ele>1444</ele></trkpt>
      <trkpt lat="47.156369" lon="10.382432"><ele>1432</ele></trkpt>
      <trkpt lat="47.156333" lon="10.382329"><ele>1430</ele></trkpt>
      <trkpt lat="47.156261" lon="10.382226"><ele>1428</ele></trkpt>
      <trkpt lat="47.156254" lon="10.382167"><ele>1426</ele></trkpt>
      <trkpt lat="47.156220" lon="10.382173"><ele>1425</ele></trkpt>
      <trkpt lat="47.156215" lon="10.382208"><ele>1426</ele></trkpt>
      <trkpt lat="47.156182" lon="10.382231"><ele>1424</ele></trkpt>
      <trkpt lat="47.156171" lon="10.382168"><ele>1423</ele></trkpt>
      <trkpt lat="47.156133" lon="10.382108"><ele>1421</ele></trkpt>
      <trkpt lat="47.156084" lon="10.382067"><ele>1418</ele></trkpt>
      <trkpt lat="47.156043" lon="10.381966"><ele>1417</ele></trkpt>
      <trkpt lat="47.155968" lon="10.381913"><ele>1414</ele></trkpt>
      <trkpt lat="47.155910" lon="10.381857"><ele>1411</ele></trkpt>
      <trkpt lat="47.155808" lon="10.381954"><ele>1408</ele></trkpt>
      <trkpt lat="47.155815" lon="10.381994"><ele>1408</ele></trkpt>
      <trkpt lat="47.155882" lon="10.382045"><ele>1409</ele></trkpt>
      <trkpt lat="47.155918" lon="10.382129"><ele>1409</ele></trkpt>
      <trkpt lat="47.155854" lon="10.382171"><ele>1405</ele></trkpt>
      <trkpt lat="47.155787" lon="10.382185"><ele>1401</ele></trkpt>
      <trkpt lat="47.155730" lon="10.382142"><ele>1400</ele></trkpt>
      <trkpt lat="47.155603" lon="10.382104"><ele>1395</ele></trkpt>
      <trkpt lat="47.155581" lon="10.382121"><ele>1394</ele></trkpt>
      <trkpt lat="47.155614" lon="10.382194"><ele>1394</ele></trkpt>
      <trkpt lat="47.155690" lon="10.382271"><ele>1395</ele></trkpt>
      <trkpt lat="47.155713" lon="10.382323"><ele>1395</ele></trkpt>
      <trkpt lat="47.155696" lon="10.382360"><ele>1394</ele></trkpt>
      <trkpt lat="47.155674" lon="10.382498"><ele>1389</ele></trkpt>
      <trkpt lat="47.155623" lon="10.382472"><ele>1387</ele></trkpt>
      <trkpt lat="47.155613" lon="10.382583"><ele>1384</ele></trkpt>
      <trkpt lat="47.155636" lon="10.382690"><ele>1382</ele></trkpt>
      <trkpt lat="47.155576" lon="10.382778"><ele>1376</ele></trkpt>
      <trkpt lat="47.155483" lon="10.382700"><ele>1372</ele></trkpt>
      <trkpt lat="47.155472" lon="10.382629"><ele>1373</ele></trkpt>
      <trkpt lat="47.155394" lon="10.382581"><ele>1368</ele></trkpt>
      <trkpt lat="47.155330" lon="10.382458"><ele>1365</ele></trkpt>
      <trkpt lat="47.155337" lon="10.382412"><ele>1366</ele></trkpt>
      <trkpt lat="47.155294" lon="10.382348"><ele>1363</ele></trkpt>
      <trkpt lat="47.155271" lon="10.382236"><ele>1362</ele></trkpt>
      <trkpt lat="47.155246" lon="10.382225"><ele>1360</ele></trkpt>
      <trkpt lat="47.155217" lon="10.382341"><ele>1357</ele></trkpt>
      <trkpt lat="47.155167" lon="10.382339"><ele>1354</ele></trkpt>
      <trkpt lat="47.155067" lon="10.382106"><ele>1348</ele></trkpt>
      <trkpt lat="47.155036" lon="10.382196"><ele>1346</ele></trkpt>
      <trkpt lat="47.154993" lon="10.382363"><ele>1340</ele></trkpt>
      <trkpt lat="47.154947" lon="10.382495"><ele>1336</ele></trkpt>
      <trkpt lat="47.154856" lon="10.382302"><ele>1332</ele></trkpt>
      <trkpt lat="47.154798" lon="10.382115"><ele>1328</ele></trkpt>
      <trkpt lat="47.154768" lon="10.382246"><ele>1326</ele></trkpt>
      <trkpt lat="47.154743" lon="10.382407"><ele>1325</ele></trkpt>
      <trkpt lat="47.154687" lon="10.382476"><ele>1321</ele></trkpt>
      <trkpt lat="47.154664" lon="10.382357"><ele>1318</ele></trkpt>
      <trkpt lat="47.154623" lon="10.382448"><ele>1315</ele></trkpt>
      <trkpt lat="47.154546" lon="10.382510"><ele>1309</ele></trkpt>
      <trkpt lat="47.154516" lon="10.382505"><ele>1306</ele></trkpt>
      <trkpt lat="47.154487" lon="10.382500"><ele>1304</ele></trkpt>
      <trkpt lat="47.154508" lon="10.382407"><ele>1303</ele></trkpt>
      <trkpt lat="47.154508" lon="10.382296"><ele>1301</ele></trkpt>
      <trkpt lat="47.154475" lon="10.382159"><ele>1294</ele></trkpt>
      <trkpt lat="47.154359" lon="10.382314"><ele>1285</ele></trkpt>
      <trkpt lat="47.154310" lon="10.382394"><ele>1281</ele></trkpt>
      <trkpt lat="47.154279" lon="10.382365"><ele>1277</ele></trkpt>
      <trkpt lat="47.154281" lon="10.382244"><ele>1276</ele></trkpt>
      <trkpt lat="47.154251" lon="10.382098"><ele>1272</ele></trkpt>
      <trkpt lat="47.154194" lon="10.381951"><ele>1268</ele></trkpt>
      <trkpt lat="47.154209" lon="10.381841"><ele>1266</ele></trkpt>
      <trkpt lat="47.154232" lon="10.381748"><ele>1266</ele></trkpt>
      <trkpt lat="47.154226" lon="10.381662"><ele>1264</ele></trkpt>
      <trkpt lat="47.154200" lon="10.381591"><ele>1260</ele></trkpt>
      <trkpt lat="47.154143" lon="10.381526"><ele>1254</ele></trkpt>
      <trkpt lat="47.154246" lon="10.381304"><ele>1254</ele></trkpt>
      <trkpt lat="47.154265" lon="10.381213"><ele>1252</ele></trkpt>
      <trkpt lat="47.154236" lon="10.381151"><ele>1248</ele></trkpt>
      <trkpt lat="47.154237" lon="10.381069"><ele>1245</ele></trkpt>
      <trkpt lat="47.154248" lon="10.380951"><ele>1241</ele></trkpt>
      <trkpt lat="47.154271" lon="10.380809"><ele>1237</ele></trkpt>
      <trkpt lat="47.154316" lon="10.380666"><ele>1234</ele></trkpt>
      <trkpt lat="47.154335" lon="10.380503"><ele>1230</ele></trkpt>
      <trkpt lat="47.154359" lon="10.380409"><ele>1228</ele></trkpt>
      <trkpt lat="47.154297" lon="10.380296"><ele>1223</ele></trkpt>
      <trkpt lat="47.154113" lon="10.380217"><ele>1218</ele></trkpt>
      <trkpt lat="47.154088" lon="10.380132"><ele>1217</ele></trkpt>
      <trkpt lat="47.154065" lon="10.380129"><ele>1216</ele></trkpt>
      <trkpt lat="47.153971" lon="10.380059"><ele>1214</ele></trkpt>
      <trkpt lat="47.153271" lon="10.379944"><ele>1202</ele></trkpt>
      <trkpt lat="47.152462" lon="10.379751"><ele>1190</ele></trkpt>
      <trkpt lat="47.152297" lon="10.379786"><ele>1187</ele></trkpt>
      <trkpt lat="47.152246" lon="10.379854"><ele>1186</ele></trkpt>
      <trkpt lat="47.152136" lon="10.379861"><ele>1185</ele></trkpt>
      <trkpt lat="47.152136" lon="10.379652"><ele>1185</ele></trkpt>
      <trkpt lat="47.152136" lon="10.379534"><ele>1185</ele></trkpt>
      <trkpt lat="47.152104" lon="10.379531"><ele>1184</ele></trkpt>
      <trkpt lat="47.151868" lon="10.379509"><ele>1181</ele></trkpt>
      <trkpt lat="47.151308" lon="10.379500"><ele>1174</ele></trkpt>
      <trkpt lat="47.150463" lon="10.379641"><ele>1163</ele></trkpt>
      <trkpt lat="47.150534" lon="10.379180"><ele>1166</ele></trkpt>
      <trkpt lat="47.150510" lon="10.379175"><ele>1165</ele></trkpt>
      <trkpt lat="47.150271" lon="10.379119"><ele>1162</ele></trkpt>
      <trkpt lat="47.150255" lon="10.379115"><ele>1162</ele></trkpt>
      <trkpt lat="47.150164" lon="10.379617"><ele>1162</ele></trkpt>
      <trkpt lat="47.150099" lon="10.379840"><ele>1163</ele></trkpt>
      <trkpt lat="47.150073" lon="10.380119"><ele>1164</ele></trkpt>
      <trkpt lat="47.150074" lon="10.380184"><ele>1165</ele></trkpt>
      <trkpt lat="47.150099" lon="10.380744"><ele>1165</ele></trkpt>
      <trkpt lat="47.150123" lon="10.381109"><ele>1164</ele></trkpt>
      <trkpt lat="47.150126" lon="10.381306"><ele>1164</ele></trkpt>
      <trkpt lat="47.150145" lon="10.381460"><ele>1164</ele></trkpt>
      <trkpt lat="47.150181" lon="10.381671"><ele>1165</ele></trkpt>
      <trkpt lat="47.150216" lon="10.381929"><ele>1166</ele></trkpt>
      <trkpt lat="47.150234" lon="10.382015"><ele>1166</ele></trkpt>
      <trkpt lat="47.150265" lon="10.382086"><ele>1166</ele></trkpt>
      <trkpt lat="47.150304" lon="10.382205"><ele>1165</ele></trkpt>
      <trkpt lat="47.150327" lon="10.382307"><ele>1164</ele></trkpt>
      <trkpt lat="47.150259" lon="10.382908"><ele>1164</ele></trkpt>
      <trkpt lat="47.150192" lon="10.383358"><ele>1162</ele></trkpt>
  </trkseg></trk>
</gpx>
